{
"type": "FeatureCollection",
"name": "cullompton_plymouth",
"crs": { "type": "name", "properties": { "name": "urn:ogc:def:crs:EPSG::3857" } },
"features": [
{ "type": "Feature", "properties": { }, "geometry": { "type": "LineString", "coordinates": [ [ -377619.089863850560505, 6596346.163396908901632 ], [ -377613.07861134770792, 6596360.447927657514811 ], [ -377608.625831715995446, 6596371.910840646363795 ], [ -377603.505135139450431, 6596392.191418156027794 ], [ -377595.601451293157879, 6596390.780593752861023 ], [ -377582.465751379611902, 6596393.954948998056352 ], [ -377536.045523718756158, 6596411.06121779885143 ], [ -377512.334472179820295, 6596420.055249688215554 ], [ -377486.84230878809467, 6596429.225645271129906 ], [ -377457.899241181847174, 6596438.572405140846968 ], [ -377413.482764355372638, 6596448.977301261387765 ], [ -377385.54157216619933, 6596456.031475614756346 ], [ -377346.023152934620157, 6596467.847231208346784 ], [ -377342.90620719245635, 6596468.729004695080221 ], [ -377326.430922555038705, 6596473.843292779289186 ], [ -377319.529114125820342, 6596478.075809463858604 ], [ -377307.172650647757109, 6596486.893559547141194 ], [ -377295.372784623701591, 6596497.827582783997059 ], [ -377285.465349943086039, 6596509.643398432992399 ], [ -377272.886247483431362, 6596528.866179570555687 ], [ -377263.090132293640636, 6596546.149085378274322 ], [ -377256.299643355247099, 6596553.732412657700479 ], [ -377249.843112889269833, 6596556.730474206618965 ], [ -377251.178946778760292, 6596561.139390239492059 ], [ -377250.288390852394514, 6596567.311876652762294 ], [ -377246.614847656222992, 6596572.249869119375944 ], [ -377241.160192607378121, 6596575.247937419451773 ], [ -377235.037620613758918, 6596575.247937419451773 ], [ -377233.924425705801696, 6596583.184005847200751 ], [ -377228.024492693773936, 6596599.056165678426623 ], [ -377220.009489356656559, 6596615.633787543512881 ], [ -377213.664278381445911, 6596625.333475407212973 ], [ -377207.319067406235263, 6596632.035084615461528 ], [ -377197.411632725619711, 6596641.205716592259705 ], [ -377187.949476008187048, 6596648.083697286434472 ], [ -377173.032664241851307, 6596659.547011228278279 ], [ -377156.668699095316697, 6596671.363059245049953 ], [ -377135.295356862945482, 6596685.119076834060252 ], [ -377127.948270470660646, 6596690.057140043005347 ], [ -377119.821947642718442, 6596695.347925340756774 ], [ -377121.93701796780806, 6596699.933275355957448 ], [ -377122.382295930990949, 6596705.047707232646644 ], [ -377121.046462041442282, 6596709.985782408155501 ], [ -377117.929516299220268, 6596714.042060662992299 ], [ -377113.699375649041031, 6596716.863820630125701 ], [ -377108.689998563379049, 6596717.921980867162347 ], [ -377103.235343514534179, 6596717.040180658921599 ], [ -377098.559924901172053, 6596714.218420632183552 ], [ -377095.220340177358594, 6596709.809422529302537 ], [ -377093.884506287868135, 6596704.518627924844623 ], [ -377094.663742723409086, 6596699.051477077417076 ], [ -377088.095892766606994, 6596696.406082809902728 ], [ -377073.513039472745731, 6596693.584329863078892 ], [ -377058.818866687943228, 6596693.231610814109445 ], [ -377036.55496852932265, 6596693.760689393617213 ], [ -377002.268565364996903, 6596699.404196375980973 ], [ -376958.742644464829937, 6596705.576786573044956 ], [ -376918.111030325293541, 6596711.749381402507424 ], [ -376883.379349197784904, 6596716.863820630125701 ], [ -376866.681425578834023, 6596721.272822516970336 ], [ -376848.981626542692538, 6596723.036423931829631 ], [ -376817.589530138939153, 6596726.563627899624407 ], [ -376801.670842955529224, 6596733.618040372617543 ], [ -376789.425698968290817, 6596742.2597038988024 ], [ -376780.074861741624773, 6596750.195933505892754 ], [ -376776.846596508636139, 6596753.899509942159057 ], [ -376772.950414330873173, 6596756.897644470445812 ], [ -376766.493883864837699, 6596759.719419143162668 ], [ -376756.363810202630702, 6596760.953945865854621 ], [ -376752.467628024867736, 6596759.366697255522013 ], [ -376746.122417049657088, 6596756.368561827577651 ], [ -376741.446998436353169, 6596752.135901908390224 ], [ -376737.884774731006473, 6596747.021440743468702 ], [ -376735.769704405975062, 6596741.025179981254041 ], [ -376725.083033289760351, 6596735.20528401248157 ], [ -376705.268163928529248, 6596720.743742165155709 ], [ -376651.389530384622049, 6596715.982020536437631 ], [ -376640.702859268407337, 6596714.923860548064113 ], [ -376623.114379723148886, 6596714.394780606031418 ], [ -376618.550280600611586, 6596704.871347460895777 ], [ -376615.544654349214397, 6596694.818846658803523 ], [ -376614.988056895206682, 6596679.122861210256815 ], [ -376624.338894121872727, 6596608.932191700674593 ], [ -376640.14626181445783, 6596501.707400976680219 ], [ -376643.81980501068756, 6596475.606841133907437 ], [ -376657.734741359832697, 6596385.842710252851248 ], [ -376693.356978413707111, 6596114.263683670200408 ], [ -376710.500179995840881, 6596063.828566183336079 ], [ -376741.446998436353169, 6595676.758152994327247 ], [ -376753.246864460408688, 6595539.03954360820353 ], [ -376771.83721942291595, 6595388.980022354982793 ], [ -376796.772785360633861, 6595258.143050190061331 ], [ -376820.261197918036487, 6595146.351383370347321 ], [ -376850.540099413774442, 6595037.558743870817125 ], [ -376873.13795604481129, 6594956.273772628046572 ], [ -376901.301787215517834, 6594875.518566357903183 ], [ -376928.129784496733919, 6594802.345865504816175 ], [ -376971.09910794289317, 6594693.205143049359322 ], [ -376984.123488365672529, 6594662.702421410009265 ], [ -377068.948940350208431, 6594487.446201429702342 ], [ -377135.517995844536927, 6594362.618092586286366 ], [ -377177.708082855213434, 6594275.521635896526277 ], [ -377220.788725792197511, 6594166.564209320582449 ], [ -377244.16581885877531, 6594098.686930526047945 ], [ -377262.978812802874018, 6594035.570379083044827 ], [ -377280.901250820548739, 6593960.289539061486721 ], [ -377292.812436335487291, 6593891.708764654584229 ], [ -377302.274593052861746, 6593829.651590144261718 ], [ -377312.96126416901825, 6593715.058606387116015 ], [ -377319.19515565346228, 6593476.357732761651278 ], [ -377321.978142923268024, 6593345.198606283403933 ], [ -377335.113842836930417, 6593223.913533268496394 ], [ -377353.704197799321264, 6593114.793753107078373 ], [ -377386.32080860179849, 6592982.758991726674139 ], [ -377424.503393943887204, 6592871.174524012953043 ], [ -377470.700982623151504, 6592766.995131370611489 ], [ -377527.807881400047336, 6592655.237317475490272 ], [ -377586.139294575725216, 6592560.050471426919103 ], [ -377662.727104241552297, 6592455.875018958002329 ], [ -377733.303661404410377, 6592362.629413076676428 ], [ -377895.050881527073216, 6592157.633810368366539 ], [ -378030.415382331702858, 6591982.959730968810618 ], [ -378098.431591206346639, 6591886.018098597414792 ], [ -378166.559119571815245, 6591775.858539349399507 ], [ -378222.664142931695096, 6591672.045520803891122 ], [ -378273.425830733438488, 6591564.180070935748518 ], [ -378364.930452165426686, 6591334.001340088434517 ], [ -378449.087987205188256, 6591119.514399003237486 ], [ -378497.066687737125903, 6591009.188865229487419 ], [ -378549.609487391484436, 6590901.8608120046556 ], [ -378611.16916580015095, 6590792.771828182041645 ], [ -378670.725093374610879, 6590695.667988325469196 ], [ -378820.227169509977102, 6590473.796183424070477 ], [ -378953.253961007925682, 6590276.601404376327991 ], [ -379085.167557597975247, 6590082.407054192386568 ], [ -379218.305668586690444, 6589886.455150751397014 ], [ -379357.566351569141261, 6589680.287772423587739 ], [ -379392.186713205825072, 6589630.949336837045848 ], [ -379485.027168527361937, 6589498.089449162594974 ], [ -379502.281689600320533, 6589476.063813021406531 ], [ -379576.53178995946655, 6589380.737539588473737 ], [ -379656.681823330640327, 6589286.821976815350354 ], [ -379710.337817892956082, 6589232.904708432033658 ], [ -379812.417790950450581, 6589130.180955920368433 ], [ -379908.263872523442842, 6589039.439771319739521 ], [ -380015.909820120548829, 6588952.752040266990662 ], [ -380139.585774391889572, 6588862.012812274508178 ], [ -380234.318661056924611, 6588797.879281859844923 ], [ -380395.843242197937798, 6588688.818189711309969 ], [ -380589.09387821512064, 6588545.050041060894728 ], [ -380758.076865239301696, 6588408.33168079983443 ], [ -380932.403187821561005, 6588253.116811165586114 ], [ -381110.403053599991836, 6588086.805829951539636 ], [ -381290.851948175870348, 6587896.891256521455944 ], [ -381347.513568989641499, 6587835.760132420808077 ], [ -381424.657976109359879, 6587749.613584322854877 ], [ -381563.250742147036362, 6587601.281559533439577 ], [ -381737.577064729237463, 6587409.264263035729527 ], [ -381890.530045079241972, 6587243.146491800434887 ], [ -382050.7187923307647, 6587067.519790654070675 ], [ -382204.896287079434842, 6586901.056617942638695 ], [ -382369.537813962670043, 6586721.033568941056728 ], [ -382521.7115578771336, 6586557.395681676454842 ], [ -382669.989119613775983, 6586395.522436803206801 ], [ -382851.551209097611718, 6586195.078804662451148 ], [ -382923.463600150018465, 6586105.074508780613542 ], [ -382982.908208233653568, 6586027.928752829320729 ], [ -383049.922541691223159, 6585932.818542158231139 ], [ -383111.370900609064847, 6585843.521622510626912 ], [ -383174.823010361171328, 6585733.971300858072937 ], [ -383229.59219983156072, 6585632.700194400735199 ], [ -383278.238817308214493, 6585530.197491181083024 ], [ -383300.1687569944188, 6585480.003334072418511 ], [ -383311.3007060738164, 6585454.818310919217765 ], [ -383323.434530570229981, 6585426.991591732949018 ], [ -383363.064269292633981, 6585322.02582685276866 ], [ -383401.024215653189458, 6585206.670699615962803 ], [ -383428.631449369888287, 6585108.928307457827032 ], [ -383460.802782209182624, 6584983.185747847892344 ], [ -383480.840290551946964, 6584882.628304502926767 ], [ -383495.868421809049323, 6584772.210250274278224 ], [ -383500.432520931586623, 6584729.593151830136776 ], [ -383509.226760704244953, 6584652.812490011565387 ], [ -383527.817115666694008, 6584512.284601584076881 ], [ -383534.607604605087545, 6584447.304471856914461 ], [ -383553.977196003077552, 6584313.295580194331706 ], [ -383568.003451843105722, 6584234.581781808286905 ], [ -383584.256097498931922, 6584157.629646120592952 ], [ -383604.182286350871436, 6584075.747728792019188 ], [ -383637.021536134940106, 6583960.76223922893405 ], [ -383652.383625864400528, 6583913.218938008882105 ], [ -383679.656901108741295, 6583832.219872050918639 ], [ -383714.83386019943282, 6583741.184916562400758 ], [ -383768.712493743340019, 6583615.639327755197883 ], [ -383812.906331588281319, 6583525.487154766917229 ], [ -383872.128300690324977, 6583415.439453630708158 ], [ -383919.66172325896332, 6583332.156331364065409 ], [ -384026.194475948170293, 6583150.802764425054193 ], [ -384125.046183772617951, 6582985.475178276188672 ], [ -384275.216176852758508, 6582731.591994703747332 ], [ -384305.495078348554671, 6582680.534602423198521 ], [ -384322.860918912221678, 6582651.308789344504476 ], [ -384466.908339998743031, 6582408.52728062402457 ], [ -384656.15147434733808, 6582087.76385089289397 ], [ -384807.100703863019589, 6581830.739605709910393 ], [ -384878.679136443068273, 6581693.428571287542582 ], [ -384943.133121612423565, 6581550.134625954553485 ], [ -384997.011755156330764, 6581410.715883605182171 ], [ -385041.762190455221571, 6581273.059795144945383 ], [ -385067.922270791663323, 6581178.884641032665968 ], [ -385089.072974042384885, 6581086.998893355950713 ], [ -385106.4388146061101, 6581007.259793953970075 ], [ -385122.468821280403063, 6580912.911658299155533 ], [ -385137.162994065089151, 6580798.146353616379201 ], [ -385147.181748236471321, 6580693.767641906626523 ], [ -385153.304320230090525, 6580537.466075640171766 ], [ -385152.302444812958129, 6580426.75426129065454 ], [ -385146.291192310105544, 6580305.131392555311322 ], [ -385138.276188972988166, 6580215.895495396107435 ], [ -385127.144239893648773, 6580124.196498095057905 ], [ -385113.340623035328463, 6580035.842576085589826 ], [ -385095.752143489953596, 6579939.921562735922635 ], [ -385062.133657270402182, 6579781.346337948925793 ], [ -385000.462659370910842, 6579503.275069952942431 ], [ -384994.228767886466812, 6579474.94048688840121 ], [ -384852.185097634268459, 6578833.830608029849827 ], [ -384805.764869973470923, 6578590.281770562753081 ], [ -384767.248326159024145, 6578344.980467787012458 ], [ -384742.758038184489124, 6578132.767301400192082 ], [ -384726.394073037896305, 6577921.263433842919767 ], [ -384718.601708682312164, 6577715.92336131632328 ], [ -384716.709277338872198, 6577520.089655567891896 ], [ -384722.609210350899957, 6577349.244825921021402 ], [ -384725.614836602355354, 6577299.804295405745506 ], [ -384731.292130632791668, 6577213.416038057766855 ], [ -384739.418453460733872, 6577119.463238906115294 ], [ -384748.212693233392201, 6577033.956566727720201 ], [ -384753.444709300645627, 6576986.981056729331613 ], [ -384759.010683840315323, 6576936.487080705352128 ], [ -384783.946249778033234, 6576754.218718325719237 ], [ -384801.646048814174719, 6576654.641374646686018 ], [ -384807.768620807735715, 6576621.214621038176119 ], [ -384851.628500180260744, 6576397.786646420136094 ], [ -384904.61657779791858, 6576189.845740317367017 ], [ -384952.038680875790305, 6576030.287200084887445 ], [ -385006.139953401347157, 6575854.371774427592754 ], [ -385166.328700652928092, 6575396.48153771366924 ], [ -385205.401841921324376, 6575275.988337218761444 ], [ -385219.984695215243846, 6575233.77215835545212 ], [ -385233.676992582855746, 6575183.640726953744888 ], [ -385244.029705226595979, 6575140.897326399572194 ], [ -385312.045914101297967, 6574850.846117367036641 ], [ -385335.645646149467211, 6574735.813475270755589 ], [ -385363.475518847757485, 6574559.573919143527746 ], [ -385386.407333951152395, 6574385.448719192296267 ], [ -385394.756295760686044, 6574294.694013389758766 ], [ -385403.105257570219692, 6574208.864901406690478 ], [ -385416.018318502232432, 6574020.853024731390178 ], [ -385422.252209986618254, 6573836.011106166057289 ], [ -385422.140890495851636, 6573534.398802099749446 ], [ -385421.250334569485858, 6573421.84660223685205 ], [ -385420.471098133944906, 6573246.690299548208714 ], [ -385416.129637992999051, 6572951.078519462607801 ], [ -385411.454219379695132, 6572813.036199116148055 ], [ -385403.327896551752929, 6572067.295965697616339 ], [ -385403.661855024169199, 6571967.247765954583883 ], [ -385397.650602521374822, 6571625.440234193578362 ], [ -385400.544909281888977, 6571450.497934767976403 ], [ -385405.331647386075929, 6571374.192607677541673 ], [ -385416.018318502232432, 6571243.736749665811658 ], [ -385431.825686194875743, 6571126.820518630556762 ], [ -385456.204654678585939, 6570975.798849907703698 ], [ -385484.591124830883928, 6570842.184780074283481 ], [ -385514.758706835797057, 6570737.580540001392365 ], [ -385530.677394019265193, 6570683.25718117877841 ], [ -385553.72052861348493, 6570620.319886379875243 ], [ -385589.788043630484026, 6570521.871450708247721 ], [ -385619.844306144688744, 6570446.981106923893094 ], [ -385728.158170686569065, 6570190.495626281946898 ], [ -385823.78161327802809, 6569964.077791993506253 ], [ -385926.195544807764236, 6569721.669940701685846 ], [ -385969.053548763156869, 6569620.068190311081707 ], [ -386015.362456933187786, 6569504.581216539256275 ], [ -386043.414968613127712, 6569424.954154373146594 ], [ -386108.870829199557193, 6569239.687984900549054 ], [ -386123.1197240211186, 6569195.920778816565871 ], [ -386182.786971086345147, 6568988.513083201833069 ], [ -386259.04082227969775, 6568691.647929647006094 ], [ -386372.920661361189559, 6568326.601058471016586 ], [ -386428.246448285470251, 6568174.400446502491832 ], [ -386493.590989381133113, 6568008.14294367749244 ], [ -386580.420192199875601, 6567813.418546930886805 ], [ -386674.596481410961132, 6567620.631866451352835 ], [ -386792.817780633398797, 6567404.477140092290938 ], [ -386922.838945879950188, 6567190.612554477527738 ], [ -387072.674980487674475, 6566968.845935500226915 ], [ -387124.549863197375089, 6566898.205206785351038 ], [ -387204.477257586957421, 6566790.663767158985138 ], [ -387252.010680155653972, 6566735.31210248824209 ], [ -387338.505924502096605, 6566640.600116132758558 ], [ -387416.206929075706284, 6566557.662127521820366 ], [ -387498.694671753561124, 6566477.712102129124105 ], [ -387609.902843056013808, 6566375.798908231779933 ], [ -387716.658234726812225, 6566286.889461224898696 ], [ -387777.77263517229585, 6566239.448053786531091 ], [ -387839.666272053378634, 6566192.885456412099302 ], [ -387976.143967765907291, 6566102.572338068857789 ], [ -388054.290250302758068, 6566053.02353781927377 ], [ -388107.94624486513203, 6566020.869688483886421 ], [ -388219.488374640000984, 6565960.252116884104908 ], [ -388358.08114067761926, 6565896.472370585426688 ], [ -388442.238675717322621, 6565865.724735290743411 ], [ -388527.175447192625143, 6565840.599609879776835 ], [ -388556.118514798872638, 6565834.274415548890829 ], [ -388591.740751852688845, 6565826.543629065155983 ], [ -388627.808266869746149, 6565819.691347110085189 ], [ -388672.113424205454066, 6565812.663371530361474 ], [ -388714.860108670080081, 6565805.986800280399621 ], [ -388744.359773730335291, 6565802.472817583940923 ], [ -388772.412285410217009, 6565799.134535409510136 ], [ -388801.244033525639679, 6565796.499050437472761 ], [ -388829.741823168704286, 6565794.039265223778784 ], [ -388857.460376376286149, 6565792.809372890740633 ], [ -388885.178929583809804, 6565791.755179610103369 ], [ -388912.674843809742015, 6565790.876685312949121 ], [ -388944.400898685795255, 6565790.17388994153589 ], [ -388978.798621340945829, 6565790.876685312949121 ], [ -389007.630369456368499, 6565791.755179610103369 ], [ -389044.58844039979158, 6565794.39066306501627 ], [ -389079.320121527300216, 6565797.904642318375409 ], [ -389108.263189133547712, 6565802.12141939625144 ], [ -389219.137401963584125, 6565817.05585556384176 ], [ -389258.544501704454888, 6565823.029637605883181 ], [ -389293.053543850313872, 6565830.233321709558368 ], [ -389322.441889419744257, 6565836.207113301381469 ], [ -389394.131641490617767, 6565849.384610059671104 ], [ -389468.715700322180055, 6565862.562127878889441 ], [ -389524.820723681943491, 6565871.522852028720081 ], [ -389593.17089102906175, 6565880.483585920184851 ], [ -389697.031975939113181, 6565888.390123913064599 ], [ -389764.157628887449391, 6565889.092927656136453 ], [ -389816.366470069508068, 6565887.160217504017055 ], [ -389898.631573765771464, 6565882.767696115188301 ], [ -389991.583348578133155, 6565871.171450899913907 ], [ -390058.597682035702746, 6565859.223821374587715 ], [ -390145.760843326803297, 6565839.545410487800837 ], [ -390231.588170728471596, 6565813.366168818436563 ], [ -390312.740079516719561, 6565783.145939527079463 ], [ -390404.912617893598508, 6565744.316621482372284 ], [ -390490.072028350434266, 6565700.567970938980579 ], [ -390564.099489727988839, 6565657.698032569140196 ], [ -390647.143829859734979, 6565602.178279758431017 ], [ -390703.360172710323241, 6565559.660240859724581 ], [ -390769.595269732351881, 6565503.086991908960044 ], [ -390816.015497393091209, 6565459.866696844808757 ], [ -390866.331907231651712, 6565413.308502417989075 ], [ -390970.972228577360511, 6565312.111220629885793 ], [ -391032.865865458443295, 6565246.228241236880422 ], [ -391107.449924289889168, 6565171.561501056887209 ], [ -391152.311679079546593, 6565128.518628700636327 ], [ -391200.290379611484241, 6565082.137989206239581 ], [ -391215.875108322594315, 6565067.029200865887105 ], [ -391275.653674878529273, 6565017.135259319096804 ], [ -391333.873768563440535, 6564969.174114225432277 ], [ -391401.22206049336819, 6564915.591479904018342 ], [ -391457.54972283472307, 6564874.833774859085679 ], [ -391536.809200279589277, 6564819.143615688197315 ], [ -391568.423935664875899, 6564798.062265574000776 ], [ -391607.051798970147502, 6564774.170133942738175 ], [ -391687.981068776804022, 6564724.277964673936367 ], [ -391769.021658074343577, 6564680.710401825606823 ], [ -391847.167940611194354, 6564640.832229574210942 ], [ -391913.848315596405882, 6564607.981192922219634 ], [ -391979.192856692010537, 6564578.292400743812323 ], [ -392055.001429922238458, 6564545.792957906611264 ], [ -392104.09332536207512, 6564526.293353696353734 ], [ -392198.492253554752097, 6564490.456363519653678 ], [ -392354.005582193029113, 6564441.092921324074268 ], [ -392503.507658328337129, 6564390.50009152200073 ], [ -392600.689573790878057, 6564355.190696330741048 ], [ -392696.313016382337082, 6564318.476112438365817 ], [ -392866.297878823592328, 6564234.683152950368822 ], [ -393038.175172608462162, 6564131.041047792881727 ], [ -393203.373296945646871, 6564010.185458650812507 ], [ -393298.885420046339277, 6563924.990359338931739 ], [ -393381.373162724135909, 6563846.119804678484797 ], [ -393451.949719886993989, 6563772.168366376310587 ], [ -393550.57878872990841, 6563653.074570114724338 ], [ -393646.202231321309227, 6563517.471338966861367 ], [ -393733.921990066417493, 6563375.371382177807391 ], [ -393773.885687261179555, 6563294.749627803452313 ], [ -393834.10953178035561, 6563169.690862693823874 ], [ -393867.171420545957517, 6563078.88393116183579 ], [ -393888.099484815087635, 6563017.76106646284461 ], [ -393923.721721868903842, 6562894.28723624907434 ], [ -393942.08943784981966, 6562815.075268919579685 ], [ -393956.115693689789623, 6562734.458992541767657 ], [ -393964.242016517731827, 6562651.911552374251187 ], [ -393970.141949529701378, 6562565.149814481846988 ], [ -393974.706048652238678, 6562469.256324122659862 ], [ -393974.038131707464345, 6562395.668486095033586 ], [ -393969.696671566518489, 6562322.081304744817317 ], [ -393953.77798438310856, 6562184.568117403425276 ], [ -393930.623530298122205, 6562044.247318176552653 ], [ -393913.814287188346498, 6561946.252481395378709 ], [ -393891.661708520492539, 6561799.086795792914927 ], [ -393883.090107729425654, 6561721.290245081298053 ], [ -393879.082606060837861, 6561611.533379878848791 ], [ -393879.082606060837861, 6561504.763303100131452 ], [ -393884.871219582099002, 6561436.627858223393559 ], [ -393897.005044078570791, 6561355.673847489058971 ], [ -393912.701092280389275, 6561274.369426133111119 ], [ -393921.940610016230494, 6561239.42457555886358 ], [ -393944.204508174851071, 6561161.457703988999128 ], [ -393979.604106247134041, 6561056.625031756237149 ], [ -394020.792317840678152, 6560956.359183309599757 ], [ -394104.393255426432006, 6560756.357918107882142 ], [ -394128.994862891733646, 6560690.16014801710844 ], [ -394151.481400031945668, 6560623.96290925797075 ], [ -394167.400087215413805, 6560573.042317920364439 ], [ -394169.849116012861487, 6560563.736174861900508 ], [ -394187.214956576644909, 6560497.188778635114431 ], [ -394199.348781073116697, 6560417.648663852363825 ], [ -394208.588298808957916, 6560324.940623989328742 ], [ -394214.599551311810501, 6560220.820904959924519 ], [ -394222.725874139636289, 6560037.69278375338763 ], [ -394232.299350347893778, 6559916.897169119678438 ], [ -394234.859698636166286, 6559835.255786144174635 ], [ -394239.089839286287315, 6559761.515876756981015 ], [ -394251.112344291992486, 6559669.341917096637189 ], [ -394261.019778972608037, 6559614.564737611450255 ], [ -394274.71207634016173, 6559561.719149612821639 ], [ -394307.773965105705429, 6559458.135756718926132 ], [ -394365.882739299791865, 6559336.47082260902971 ], [ -394442.470548965618946, 6559220.776684133335948 ], [ -394521.062109465594403, 6559135.279934071004391 ], [ -394603.21589367109118, 6559056.104062655009329 ], [ -394677.577313521003816, 6559001.155401302501559 ], [ -394750.714218972134404, 6558954.809211129322648 ], [ -394824.073763404972851, 6558917.767556975595653 ], [ -394944.298813461675309, 6558869.841872135177255 ], [ -395027.788431556604337, 6558848.073521167971194 ], [ -395099.144225155119784, 6558837.716019507497549 ], [ -395184.637594084371813, 6558827.007429767400026 ], [ -395345.048980317485984, 6558817.527706190943718 ], [ -395646.390841894899495, 6558802.781491168774664 ], [ -395779.974230846797582, 6558788.38640193361789 ], [ -395847.767800739908125, 6558775.044634340330958 ], [ -395903.984143590496387, 6558758.36745519656688 ], [ -395962.649515238532331, 6558736.599398411810398 ], [ -396030.888363094767556, 6558705.702900312840939 ], [ -396123.506179434829392, 6558650.229932785965502 ], [ -396172.709394365432672, 6558612.663008414208889 ], [ -396199.092113683465868, 6558591.597518214024603 ], [ -396213.118369523435831, 6558578.782704658806324 ], [ -396238.721852405869868, 6558554.908584554679692 ], [ -396286.255274974566419, 6558502.06978502124548 ], [ -396311.19084091228433, 6558474.158396302722394 ], [ -396336.905643285484985, 6558439.576492221094668 ], [ -396372.861838811717462, 6558380.594492860138416 ], [ -396407.927478411642369, 6558316.697802804410458 ], [ -396429.078181662363932, 6558271.057612932287157 ], [ -396440.766728195652831, 6558233.316877434961498 ], [ -396496.760432064649649, 6558050.408410279080272 ], [ -396553.978650332370307, 6557823.094998120330274 ], [ -396589.155609423061833, 6557700.57654451020062 ], [ -396607.412005913152825, 6557639.31800005864352 ], [ -396621.549581243947614, 6557595.612325192429125 ], [ -396643.145562457793858, 6557534.179037149064243 ], [ -396682.441342707839794, 6557425.70651987940073 ], [ -396701.031697670347057, 6557370.944237424060702 ], [ -396745.225535515288357, 6557249.310083549469709 ], [ -396788.751456415397115, 6557126.624636833555996 ], [ -396815.245495224196929, 6557056.9457319797948 ], [ -396838.845227272424381, 6556989.198041158728302 ], [ -396866.45246098912321, 6556898.283620465546846 ], [ -396904.969004803628195, 6556769.460655025206506 ], [ -396907.529353091842495, 6556761.036334987729788 ], [ -396936.361101207265165, 6556661.349201062694192 ], [ -396954.728817188180983, 6556602.028907812200487 ], [ -396977.660632291575894, 6556543.586550799198449 ], [ -397002.37355924770236, 6556486.899615053087473 ], [ -397040.667464080557693, 6556416.69961526338011 ], [ -397066.93886390782427, 6556382.301833419129252 ], [ -397086.642413778230548, 6556357.205583069473505 ], [ -397111.577979715890251, 6556329.125952890142798 ], [ -397131.281529586354736, 6556306.311323737725616 ], [ -397152.209593855484854, 6556288.059665843844414 ], [ -397197.961904571508057, 6556248.222052793949842 ], [ -397250.059426262741908, 6556214.000468309037387 ], [ -397291.581596328644082, 6556188.02725791092962 ], [ -397335.441475701169111, 6556167.143452098593116 ], [ -397393.995527858438436, 6556145.733218663372099 ], [ -397443.755340243049432, 6556129.763326622545719 ], [ -397470.47201803344069, 6556123.094589644111693 ], [ -397508.543283884704579, 6556116.952336671762168 ], [ -397531.697737969749141, 6556113.266987081617117 ], [ -397559.638930158864241, 6556110.283610047772527 ], [ -397624.649512782110833, 6556107.300234093330801 ], [ -397728.955875655403361, 6556103.614888818003237 ], [ -397752.110329740389716, 6556104.316859218291938 ], [ -397801.202225180226378, 6556102.035455628298223 ], [ -397837.158420706458855, 6556099.403067658655345 ], [ -397890.703095778007992, 6556092.383370503783226 ], [ -397931.557348899194039, 6556085.012694921344519 ], [ -397975.194589290127624, 6556073.25472607370466 ], [ -398005.250851804332342, 6556058.513415668159723 ], [ -398052.005037937487941, 6556041.139762219972908 ], [ -398101.653530831274111, 6556016.922003303654492 ], [ -398141.728547516860999, 6555994.459217999130487 ], [ -398181.358286239264999, 6555967.60925018042326 ], [ -398220.208788526128046, 6555937.600566022098064 ], [ -398263.846028917119838, 6555899.168550973758101 ], [ -398323.290637000696734, 6555843.889939150772989 ], [ -398402.21615597314667, 6555769.483757526613772 ], [ -398439.062907425686717, 6555732.105433649383485 ], [ -398471.568198737280909, 6555697.184054020792246 ], [ -398508.414950189879164, 6555652.435768530704081 ], [ -398529.34301445906749, 6555622.603713034652174 ], [ -398553.721982942777686, 6555583.295757547020912 ], [ -398573.314213322417345, 6555548.550488533452153 ], [ -398592.238526757282671, 6555504.504928523674607 ], [ -398608.825130885466933, 6555461.161519325338304 ], [ -398623.519303670153022, 6555405.710364233702421 ], [ -398641.664380669477396, 6555321.656950486823916 ], [ -398654.243483129073866, 6555237.428918818943202 ], [ -398683.965787170862313, 6555004.753449635580182 ], [ -398693.427943888353184, 6554951.761914706788957 ], [ -398699.439196391147561, 6554923.862534729763865 ], [ -398708.12211667309748, 6554882.803241432644427 ], [ -398724.040803856449202, 6554819.284566290676594 ], [ -398733.391641083057038, 6554781.38415327295661 ], [ -398742.742478309781291, 6554753.134421622380614 ], [ -398754.987622297019698, 6554717.866258846595883 ], [ -398762.112069707829505, 6554697.512561867944896 ], [ -398780.145827216270845, 6554652.243312388658524 ], [ -398803.745559264498297, 6554600.306804953143001 ], [ -398822.781192190072034, 6554562.933777194470167 ], [ -398845.601687802758534, 6554524.683623592369258 ], [ -398870.314614758826792, 6554487.310938348993659 ], [ -398902.263308616529685, 6554445.025615954771638 ], [ -398952.91367692744825, 6554386.072167135775089 ], [ -398997.218834263156168, 6554341.857356926426291 ], [ -399044.306978868786246, 6554298.169146206229925 ], [ -399093.510193799389526, 6554259.744766513817012 ], [ -399155.626469662005547, 6554215.179728325456381 ], [ -399234.218030162039213, 6554161.316007355228066 ], [ -399341.307380305137485, 6554090.784891330637038 ], [ -399403.646295149461366, 6554049.378845350816846 ], [ -399486.356676808791235, 6553990.77911842148751 ], [ -399599.123320982325822, 6553911.82804854400456 ], [ -399656.007580777688418, 6553872.703687163069844 ], [ -399713.893715990299825, 6553830.070625643245876 ], [ -399820.649107661040034, 6553751.471978473477066 ], [ -399929.853528129227925, 6553668.312617731280625 ], [ -400036.942878272384405, 6553587.961120082065463 ], [ -400127.334304796473589, 6553513.224403165280819 ], [ -400215.944619467947632, 6553440.067286526784301 ], [ -400265.593112361733802, 6553396.734719927422702 ], [ -400306.002087519678753, 6553358.665405858308077 ], [ -400377.691839590552263, 6553285.509659382514656 ], [ -400417.655536785314325, 6553240.599018785171211 ], [ -400451.719300968106836, 6553201.477839632891119 ], [ -400501.813071825075895, 6553137.972105129621923 ], [ -400554.578510461084079, 6553064.292031109333038 ], [ -400601.110057612648234, 6552994.998276034370065 ], [ -400644.747298003640026, 6552923.424577865749598 ], [ -400701.186279835819732, 6552817.293153412640095 ], [ -400769.75908616441302, 6552688.358465768396854 ], [ -400805.603962199878879, 6552622.927075072191656 ], [ -400840.446962818212342, 6552562.934137875214219 ], [ -400873.286212602222804, 6552511.186194421723485 ], [ -400919.261162299837451, 6552444.703719556331635 ], [ -400969.911530610756017, 6552376.467646616511047 ], [ -401042.714477589644957, 6552291.041790168732405 ], [ -401085.683801035804208, 6552246.136561061255634 ], [ -401138.226600690220948, 6552194.390603959560394 ], [ -401210.027672251919284, 6552130.717210455797613 ], [ -401323.128274897811934, 6552036.172774828970432 ], [ -401524.171275270462502, 6551866.206002946943045 ], [ -401720.20489855739288, 6551704.486483065411448 ], [ -401911.229144758661278, 6551542.068549422547221 ], [ -402131.64173652936006, 6551356.677470988593996 ], [ -402209.342741103086155, 6551285.46875970531255 ], [ -402251.755467095354106, 6551244.076786229386926 ], [ -402294.947429523104802, 6551199.352641430683434 ], [ -402349.27134103019489, 6551133.582280494272709 ], [ -402366.859820575569756, 6551107.098896495997906 ], [ -402380.10683997994056, 6551085.000243758782744 ], [ -402402.148099157086108, 6551042.381580563262105 ], [ -402420.627134628710337, 6551004.84927751403302 ], [ -402441.555198897840455, 6550959.951045727357268 ], [ -402455.804093719401862, 6550915.75458734575659 ], [ -402469.051113123772666, 6550864.718495305627584 ], [ -402480.40570118476171, 6550799.652320119552314 ], [ -402484.63584183488274, 6550745.986265115439892 ], [ -402485.971675724373199, 6550678.991875668987632 ], [ -402482.966049472917803, 6550624.800476788543165 ], [ -402476.732157988531981, 6550575.169184125959873 ], [ -402468.717154651414603, 6550529.922541322186589 ], [ -402451.462633578397799, 6550441.534466225653887 ], [ -402376.433296783769038, 6550172.342488976195455 ], [ -402309.752921798615716, 6549915.960637719370425 ], [ -402288.268260075536091, 6549823.195158216170967 ], [ -402276.913672014605254, 6549749.895384319126606 ], [ -402271.570336456468794, 6549705.003978141583502 ], [ -402269.900544094620273, 6549628.373508999124169 ], [ -402271.125058493344113, 6549585.236303836107254 ], [ -402274.798601689515635, 6549544.028208617120981 ], [ -402280.921173683193047, 6549501.417500957846642 ], [ -402291.385205817699898, 6549443.02540695015341 ], [ -402294.502151559921913, 6549426.89312947448343 ], [ -402305.522781148494687, 6549387.439322828315198 ], [ -402315.096257356693968, 6549354.473620100878179 ], [ -402339.697864821995609, 6549294.855130344629288 ], [ -402350.607174919743557, 6549267.851603131741285 ], [ -402369.754127336142119, 6549232.431526033207774 ], [ -402403.372613555751741, 6549176.846859945915639 ], [ -402442.66839380573947, 6549116.352932577952743 ], [ -402485.415078270423692, 6549057.437533766962588 ], [ -402527.716484771808609, 6549011.147158239968121 ], [ -403260.644012154778466, 6548235.295975312590599 ], [ -403329.884735428204294, 6548172.354410259053111 ], [ -403402.242404443735722, 6548111.341874864883721 ], [ -403465.583194705192, 6548066.284056279808283 ], [ -403518.12599435960874, 6548035.076839690096676 ], [ -403592.932692172646057, 6547995.454363876953721 ], [ -403669.409182347648311, 6547962.318899576552212 ], [ -403749.447896227939054, 6547935.319730700924993 ], [ -403838.614808353420813, 6547912.528293232433498 ], [ -403936.909918723860756, 6547892.366689458489418 ], [ -404075.280045779887587, 6547866.594971976242959 ], [ -404155.875357114244252, 6547848.011334462091327 ], [ -404228.121706639125478, 6547829.252422036603093 ], [ -404285.228605416079517, 6547810.493552233092487 ], [ -404333.652583911141846, 6547791.559409112669528 ], [ -404351.018424474867061, 6547783.144248329102993 ], [ -404417.921438441611826, 6547751.762786881066859 ], [ -404493.17341421789024, 6547709.161328973248601 ], [ -404544.046421510458458, 6547674.799819379113615 ], [ -404590.911927134380676, 6547640.087827342562377 ], [ -404648.575423365284223, 6547591.175722636282444 ], [ -404690.654190885135904, 6547551.204755451530218 ], [ -404745.757338827825151, 6547492.47583453450352 ], [ -404788.837981764867436, 6547436.727573708631098 ], [ -404847.614672903669998, 6547353.105888255871832 ], [ -404972.737780555384234, 6547151.856331027112901 ], [ -405100.866514458379243, 6546944.651546405628324 ], [ -405173.66946143709356, 6546835.616937361657619 ], [ -405238.234766097331885, 6546747.443700406700373 ], [ -405328.292234148946591, 6546637.710529764182866 ], [ -405366.363500000326894, 6546592.660752567462623 ], [ -405396.085804042115342, 6546555.849833056330681 ], [ -405461.875623100902885, 6546475.567539756186306 ], [ -405511.078838031564374, 6546407.205503599718213 ], [ -405522.322106601670384, 6546393.18259178288281 ], [ -405523.546621000394225, 6546391.605015692301095 ], [ -405570.189487642841414, 6546327.275225238874555 ], [ -405601.136306083295494, 6546281.350722315721214 ], [ -405708.448295207985211, 6546110.801273436285555 ], [ -405796.947290388692636, 6545961.463847105391324 ], [ -405811.307504701020662, 6545935.873432436026633 ], [ -405894.017886360408738, 6545799.509409364312887 ], [ -405993.203552657214459, 6545641.939904408529401 ], [ -406020.588147392380051, 6545605.30849251896143 ], [ -406063.891429311013781, 6545547.645020267926157 ], [ -406072.129071629722603, 6545535.726784424856305 ], [ -406110.868254425819032, 6545486.476609892211854 ], [ -406159.737510883947834, 6545424.257058462128043 ], [ -406274.396586401038803, 6545294.03568369615823 ], [ -406442.48901749891229, 6545112.290037873201072 ], [ -406610.804087578319013, 6544928.620584954507649 ], [ -407053.299063481565099, 6544451.589810562320054 ], [ -407241.874280885444023, 6544266.533122505992651 ], [ -407474.977294606564101, 6544066.585433794185519 ], [ -407708.52558629080886, 6543884.165867194533348 ], [ -407960.998191409860738, 6543689.834757675416768 ], [ -408173.395779843558557, 6543528.625765355303884 ], [ -408246.532685294747353, 6543474.130828510969877 ], [ -408342.935364321747329, 6543398.959946234710515 ], [ -408583.162825453560799, 6543216.905562898144126 ], [ -408789.103883421164937, 6543060.61183465551585 ], [ -409101.577694077801425, 6542822.84778784122318 ], [ -409164.584525866783224, 6542777.117978540249169 ], [ -409241.840252477384638, 6542723.328833419829607 ], [ -409368.52183300012257, 6542648.690404513850808 ], [ -409502.773138896736782, 6542580.184834523126483 ], [ -409611.866239874158055, 6542532.529120947234333 ], [ -409789.198188707930967, 6542463.323702941648662 ], [ -409884.265033845324069, 6542419.873508962802589 ], [ -409961.298121474275831, 6542378.525955975987017 ], [ -410052.802742906322237, 6542324.914606462232769 ], [ -410176.923975140904076, 6542238.191101329401135 ], [ -410220.561215531837661, 6542204.202743638306856 ], [ -410262.41734407003969, 6542169.163346040062606 ], [ -410333.661818177788518, 6542103.990461862646043 ], [ -410403.347819414339028, 6542034.438246781006455 ], [ -410453.218951289833058, 6541978.201241638511419 ], [ -410497.078830662299879, 6541922.840576292015612 ], [ -410580.679768247995526, 6541810.018090449273586 ], [ -410621.867979841597844, 6541745.198415158316493 ], [ -410685.876687047653832, 6541634.130208134651184 ], [ -410750.330672217009123, 6541498.362740714102983 ], [ -410820.350631926034112, 6541343.678139333613217 ], [ -410878.12544764764607, 6541230.513210208155215 ], [ -410925.213592253217939, 6541158.165546239353716 ], [ -410971.967778386373539, 6541100.533114809542894 ], [ -411004.139111225609668, 6541065.673571808263659 ], [ -411041.987738095398527, 6541029.237623796798289 ], [ -411100.319151271076407, 6540981.76602878421545 ], [ -411157.203411066439003, 6540942.352550161071122 ], [ -411213.976351370976772, 6540909.770883146673441 ], [ -411271.194569638755638, 6540882.444422805681825 ], [ -411343.218280181929003, 6540855.468390363268554 ], [ -411420.140048320114147, 6540827.96694147773087 ], [ -411556.506424541934393, 6540788.904531330801547 ], [ -411702.780235444311984, 6540747.214808576740324 ], [ -411927.311648374306969, 6540694.314706935547292 ], [ -412021.487937585392501, 6540669.616431112401187 ], [ -412069.355318626447115, 6540655.603257804177701 ], [ -412118.447214066283777, 6540639.488137886859477 ], [ -412209.951835498388391, 6540602.703742811456323 ], [ -412293.664092574908864, 6540563.292072704993188 ], [ -412366.800998026097659, 6540523.004782047122717 ], [ -412443.500127182691358, 6540475.01061397138983 ], [ -412511.627655548218172, 6540428.242842514999211 ], [ -412582.092893220309634, 6540372.191929655149579 ], [ -412644.877086027699988, 6540319.119072072207928 ], [ -413142.586529364518356, 6539881.412367325276136 ], [ -413443.594432469457388, 6539615.716967549175024 ], [ -413657.550493774178904, 6539427.265818905085325 ], [ -413862.600995815359056, 6539236.367086406797171 ], [ -414029.357593023683876, 6539079.448128689080477 ], [ -414106.947278106585145, 6539006.94417052809149 ], [ -414216.374337556422688, 6538912.900129207409918 ], [ -414306.097847135795746, 6538843.900154019705951 ], [ -414421.758798069960903, 6538764.218158528208733 ], [ -414503.801262784574647, 6538712.031246077269316 ], [ -414591.187063057266641, 6538662.646619063802063 ], [ -414689.593492918589618, 6538610.460348166525364 ], [ -414779.20568300713785, 6538560.901208138093352 ], [ -414827.407022520608734, 6538532.531798870302737 ], [ -414856.795368090097327, 6538513.268675264902413 ], [ -414919.802199879079126, 6538473.516734879463911 ], [ -414965.10923263191944, 6538442.170626008883119 ], [ -414979.914724907488562, 6538433.764985750429332 ], [ -414994.608897692116443, 6538422.382361529394984 ], [ -415026.446272058994509, 6538399.266926756128669 ], [ -415074.870250554115046, 6538363.543200215324759 ], [ -415111.494363025063649, 6538333.948661383241415 ], [ -415131.754510349477641, 6538317.312724557705224 ], [ -415168.712581292842515, 6538288.243694292381406 ], [ -415250.087129062740132, 6538217.497806996107101 ], [ -415277.694362779497169, 6538192.806934474036098 ], [ -415399.032607744156849, 6538084.238015910610557 ], [ -415468.941247962240595, 6538021.023544653318822 ], [ -415710.059265020478051, 6537803.891648296266794 ], [ -415889.617603670107201, 6537643.497879402711987 ], [ -415986.354241169407032, 6537556.473305517807603 ], [ -416156.005145138362423, 6537402.913063607178628 ], [ -416388.774200387124438, 6537192.100686307996511 ], [ -416435.305747538688593, 6537149.378567582927644 ], [ -416565.660871257598046, 6537031.893879983574152 ], [ -416674.976611216610763, 6536932.794831180945039 ], [ -416800.433677340624854, 6536819.515218744054437 ], [ -416976.875070247973781, 6536659.840875145047903 ], [ -417066.041982373397332, 6536577.378688737750053 ], [ -417147.639169124886394, 6536494.917325205169618 ], [ -417187.157588356523775, 6536452.548961613327265 ], [ -417254.61719977715984, 6536374.815834603272378 ], [ -417309.831667210673913, 6536307.93791860062629 ], [ -417432.728385046357289, 6536144.947149386629462 ], [ -417555.847741863806732, 6535977.933090100064874 ], [ -417625.979021063540131, 6535884.623769831843674 ], [ -417704.013984109624289, 6535781.862191506661475 ], [ -417753.773796494293492, 6535715.689313161186874 ], [ -417784.943253916339017, 6535672.799767608754337 ], [ -417865.983843213878572, 6535556.911578195169568 ], [ -417939.232068155833986, 6535440.849959814921021 ], [ -418013.259529533330351, 6535312.711423631757498 ], [ -418091.071853597823065, 6535197.178381099365652 ], [ -418132.482704172900412, 6535144.138752500526607 ], [ -418152.408893024956342, 6535119.632108385674655 ], [ -418186.472657207632437, 6535079.371350809931755 ], [ -418220.202462918066885, 6535044.012064615264535 ], [ -418279.981029474001843, 6534986.59730829577893 ], [ -418302.022288651147392, 6534965.942097174935043 ], [ -418364.583842476888094, 6534918.68036761879921 ], [ -418435.716997093870305, 6534869.843531000427902 ], [ -418521.433005004597362, 6534815.580717658624053 ], [ -418670.26716419524746, 6534725.435218516737223 ], [ -418787.375268509727903, 6534655.595012618228793 ], [ -418873.759193365345709, 6534603.609077082015574 ], [ -418956.246936043142341, 6534549.698081899434328 ], [ -419031.164953347004484, 6534493.161928992718458 ], [ -419089.16240805038251, 6534441.177015125751495 ], [ -419138.810900944168679, 6534391.467841013334692 ], [ -419184.897170132549945, 6534339.30853608995676 ], [ -419221.298643621965311, 6534295.550983849912882 ], [ -419254.026573915150948, 6534249.693317706696689 ], [ -419314.361737925151829, 6534153.953132544644177 ], [ -419336.069038629822899, 6534112.121845844201744 ], [ -419363.119674892630428, 6534054.363513429649174 ], [ -419389.057116247422528, 6533990.654790653847158 ], [ -419408.760666117828805, 6533935.172594213858247 ], [ -419425.235950755246449, 6533876.015331285074353 ], [ -419440.375401503115427, 6533808.282535358332098 ], [ -419455.960130214225501, 6533710.797289179638028 ], [ -419462.41666068014456, 6533639.040481741540134 ], [ -419463.975133551226463, 6533564.484068523161113 ], [ -419460.301590355171356, 6533479.077548352070153 ], [ -419457.852561557665467, 6533447.050330799072981 ], [ -419452.509225999587215, 6533403.997545353136957 ], [ -419446.275334515143186, 6533360.944984151981771 ], [ -419436.256580343761016, 6533310.017243954353034 ], [ -419410.319138988910709, 6533214.462949234060943 ], [ -419382.266627308970783, 6533131.3351114615798 ], [ -419344.084041966940276, 6533041.732988831587136 ], [ -419294.324229582329281, 6532925.531682613305748 ], [ -419274.731999202689622, 6532883.706612247042358 ], [ -419239.666359602822922, 6532792.532192340120673 ], [ -419226.753298670810182, 6532753.68274506367743 ], [ -419210.834611487342045, 6532698.558842666447163 ], [ -419192.57821499730926, 6532621.211002571508288 ], [ -419180.889668463962153, 6532558.038303596898913 ], [ -419173.765221053210553, 6532489.266357453539968 ], [ -419167.308690587233286, 6532403.870945825241506 ], [ -419166.752093133283779, 6532321.801186854019761 ], [ -419171.316192255762871, 6532263.180429290980101 ], [ -419177.104805777024012, 6532205.260029349476099 ], [ -419185.565087077266071, 6532149.439846657216549 ], [ -419198.478148009278812, 6532093.620040884241462 ], [ -419234.211704553978052, 6531980.406733353622258 ], [ -419282.524363558273762, 6531858.621042352169752 ], [ -419340.967096224718262, 6531727.913395966403186 ], [ -419360.002729150350206, 6531685.74443557113409 ], [ -419381.598710364254657, 6531636.401775764301419 ], [ -419404.085247504408471, 6531572.886657850816846 ], [ -419455.180893778568134, 6531425.211520655080676 ], [ -419476.99951397406403, 6531352.074810956604779 ], [ -419497.25966129853623, 6531275.789362967014313 ], [ -419513.178348481887951, 6531213.501766907982528 ], [ -419529.987591591721866, 6531129.169308828189969 ], [ -419556.370310909696855, 6530980.977218578569591 ], [ -419576.96441670646891, 6530852.732842973433435 ], [ -419587.205809859442525, 6530770.328570928424597 ], [ -419595.888730141334236, 6530706.645152630284429 ], [ -419622.271449459309224, 6530521.196234122850001 ], [ -419634.293954464956187, 6530449.292159348726273 ], [ -419649.990002666832879, 6530381.062593628652394 ], [ -419669.916191518830601, 6530318.431846899911761 ], [ -419685.500920229940675, 6530278.194466632790864 ], [ -419706.762942971428856, 6530230.609643562696874 ], [ -419728.804202148457989, 6530188.273376791737974 ], [ -419757.079352809931152, 6530140.164245870895684 ], [ -419784.129989072738681, 6530100.627496926113963 ], [ -419817.859794783114921, 6530056.892375412397087 ], [ -419868.844121566333342, 6529997.58792017865926 ], [ -419936.749010950268712, 6529927.962583440355957 ], [ -419956.229921839141753, 6529910.118998559191823 ], [ -419975.822152218781412, 6529894.899500709027052 ], [ -419999.6445232485421, 6529875.30662518274039 ], [ -420037.159191645856481, 6529851.340403072535992 ], [ -420088.366157410782762, 6529820.201911684125662 ], [ -420145.584375678445213, 6529791.337684512138367 ], [ -420203.359191400231794, 6529768.771177091635764 ], [ -420269.705607913027052, 6529744.980197203345597 ], [ -420371.451622498047072, 6529717.165829572826624 ], [ -420447.37151521909982, 6529697.04857796151191 ], [ -420512.382097842288204, 6529679.030559374950826 ], [ -420573.273859306238592, 6529660.662716764956713 ], [ -420630.603397064842284, 6529640.370671415701509 ], [ -420685.817864498239942, 6529614.655823421664536 ], [ -420754.947268280899152, 6529577.92046501301229 ], [ -420821.738962756819092, 6529536.462185131385922 ], [ -420893.985312281700317, 6529480.834946298971772 ], [ -420947.307348371658009, 6529434.129346113651991 ], [ -420977.252291395037901, 6529408.415139519609511 ], [ -421025.119672436150722, 6529355.937415008433163 ], [ -421043.487388417008333, 6529332.147622948512435 ], [ -421058.070241710927803, 6529313.255778011865914 ], [ -421062.077743379515596, 6529308.008050967007875 ], [ -421088.683101679082029, 6529268.300357606261969 ], [ -421108.943249003437813, 6529227.543320002965629 ], [ -421142.895693695463706, 6529158.973993304185569 ], [ -421201.227106871083379, 6529039.328876795247197 ], [ -421238.630455777631141, 6528961.665429525077343 ], [ -421375.219470981042832, 6528679.179537860676646 ], [ -421430.545257905207109, 6528562.514805817045271 ], [ -421457.707213658839464, 6528506.544304235838354 ], [ -421465.499578014365397, 6528490.627762033604085 ], [ -421519.266892067505978, 6528376.414352382533252 ], [ -421548.098640182928648, 6528317.296851808205247 ], [ -421592.849075481819455, 6528224.773564642295241 ], [ -421639.046664161025546, 6528123.681250988505781 ], [ -421672.887789362226613, 6528042.353556592948735 ], [ -421680.346195245336276, 6528025.213628423400223 ], [ -421707.842109471268486, 6527951.407404810190201 ], [ -421727.100381378550082, 6527894.041885029524565 ], [ -421743.575666015909519, 6527842.623129282146692 ], [ -421759.271714217786212, 6527789.455772472545505 ], [ -421777.973388671001885, 6527719.499244820326567 ], [ -421784.429919137037359, 6527693.615479578264058 ], [ -421802.018398682354018, 6527616.314446724019945 ], [ -421825.395491748990025, 6527497.915849374607205 ], [ -421836.082162865146529, 6527433.033437463454902 ], [ -421847.102792453661095, 6527343.318164695054293 ], [ -421870.479885520238895, 6527091.141265672631562 ], [ -421885.508016777399462, 6526917.664812016300857 ], [ -421906.881359009654261, 6526681.413921482861042 ], [ -421922.688726702297572, 6526504.273898555897176 ], [ -421939.386650321306661, 6526324.16503078956157 ], [ -421953.524225651985034, 6526214.353005057200789 ], [ -421968.886315381503664, 6526103.66815519798547 ], [ -421975.788123810722027, 6526045.616029918193817 ], [ -421978.905069552944042, 6525993.509348811581731 ], [ -421980.018264460843056, 6525958.188899300061166 ], [ -421979.684305988484994, 6525927.239916542544961 ], [ -421978.793750062177423, 6525902.410872854292393 ], [ -421978.793750062177423, 6525878.456161912530661 ], [ -421976.678679737029597, 6525719.342689559794962 ], [ -421972.225900105317123, 6525543.79687153082341 ], [ -421960.537353572028223, 6525201.108600037172437 ], [ -421958.756241719354875, 6525129.075932504609227 ], [ -421958.199644265405368, 6525070.506143390201032 ], [ -421961.761867970810272, 6525027.322116739116609 ], [ -421966.771245056472253, 6524957.738612898625433 ], [ -421978.459791589761153, 6524893.750279288738966 ], [ -422013.414111698803026, 6524766.474409624934196 ], [ -422055.381559727829881, 6524625.389298806898296 ], [ -422068.517259641550481, 6524573.116739827208221 ], [ -422077.534138395742048, 6524521.368980061262846 ], [ -422099.798036554362625, 6524380.462869681417942 ], [ -422110.484707670577336, 6524325.045119144022465 ], [ -422122.729851657815743, 6524278.018991114571691 ], [ -422135.976871062186547, 6524239.55915948562324 ], [ -422161.580353944736999, 6524173.653409224003553 ], [ -422191.747935949650127, 6524117.188157556578517 ], [ -422226.145658604742493, 6524059.674412000924349 ], [ -422272.343247284006793, 6523999.713698769919574 ], [ -422310.191874153737444, 6523955.4863958125934 ], [ -422365.628980568784755, 6523886.086717219091952 ], [ -422405.815316745080054, 6523832.245554034598172 ], [ -422438.431927547499072, 6523783.648960882797837 ], [ -422466.261800245847553, 6523736.101491373032331 ], [ -422499.991605956223793, 6523672.647022132761776 ], [ -422529.602590507245623, 6523609.892254405654967 ], [ -422556.653226769994944, 6523546.43875325191766 ], [ -422584.483099468343426, 6523465.505655045621097 ], [ -422594.056575676484499, 6523433.691997384652495 ], [ -422603.741371375566814, 6523398.032878175377846 ], [ -422615.207278927322477, 6523326.190707733854651 ], [ -422621.775128884066362, 6523250.328849763609469 ], [ -422623.667560227564536, 6523149.99649316072464 ], [ -422624.335477172338869, 6523064.347883190959692 ], [ -422629.344854258000851, 6522962.794251811690629 ], [ -422635.133467779320199, 6522912.105298081412911 ], [ -422647.155972784967162, 6522844.28745951037854 ], [ -422663.519937931618188, 6522778.218038003891706 ], [ -422679.104666642611846, 6522725.083224676549435 ], [ -422718.845724855782464, 6522628.42767939157784 ], [ -422757.807546633470338, 6522543.483593586832285 ], [ -422888.719267806387506, 6522252.8276097914204 ], [ -422934.248939540819265, 6522162.818957920186222 ], [ -423033.100647365208715, 6521948.025568626821041 ], [ -423070.949274234997574, 6521859.243599588051438 ], [ -423124.493949306488503, 6521737.257329772226512 ], [ -423186.721544659987558, 6521601.117183847352862 ], [ -423199.857244573533535, 6521570.184497663751245 ], [ -423257.409421313670464, 6521447.153941387310624 ], [ -423319.414377685519867, 6521323.076682079583406 ], [ -423378.302388315205462, 6521220.495902328751981 ], [ -423430.177271024789661, 6521137.13903324957937 ], [ -423483.054029151622672, 6521061.646744406782091 ], [ -423561.868228633305989, 6520948.933845039457083 ], [ -423635.67305102921091, 6520869.948356113396585 ], [ -423755.34150363196386, 6520742.734374997206032 ], [ -423813.227638844458852, 6520686.117792542092502 ], [ -423854.972447892010678, 6520645.752502718009055 ], [ -423878.460860449296888, 6520623.210933047346771 ], [ -424084.067959944542963, 6520435.891117122024298 ], [ -424279.211027305107564, 6520262.379436505027115 ], [ -424372.162802117469255, 6520182.876306892372668 ], [ -424488.157711524050683, 6520094.46273454837501 ], [ -424529.902520571602508, 6520061.96312129124999 ], [ -424706.009955006535165, 6519921.132938789203763 ], [ -424921.079211219097488, 6519757.067051474004984 ], [ -424971.395621057716198, 6519721.423774432390928 ], [ -425036.183564699371345, 6519679.315983196720481 ], [ -425144.608748732018284, 6519615.717899727635086 ], [ -425213.849472005502321, 6519580.07523150742054 ], [ -425307.469163762580138, 6519536.570418050512671 ], [ -425364.242104067117907, 6519512.634132282808423 ], [ -425416.673584230768029, 6519492.716399821452796 ], [ -425661.131186012818944, 6519407.804499252699316 ], [ -425811.412498583784327, 6519356.787891570478678 ], [ -425996.536811772966757, 6519293.192286767996848 ], [ -426131.789993086771574, 6519247.941865556873381 ], [ -426264.148867640004028, 6519202.516981159336865 ], [ -426501.482022011245135, 6519120.578108690679073 ], [ -426638.404995687014889, 6519074.455091724172235 ], [ -426751.282959351316094, 6519039.33887616917491 ], [ -426808.389858128270134, 6519020.645230155438185 ], [ -426871.953287371259648, 6518999.331031084991992 ], [ -426971.472912140423432, 6518963.166900870390236 ], [ -427048.728638750966638, 6518933.641713673248887 ], [ -427088.581016454962082, 6518918.442398022860289 ], [ -427145.242637268791441, 6518893.110267304815352 ], [ -427184.87237599119544, 6518873.543433208949864 ], [ -427220.939891008136328, 6518853.45253562182188 ], [ -427279.159984692989383, 6518820.783093254081905 ], [ -427342.389455463620834, 6518777.631674535572529 ], [ -427398.717117805033922, 6518738.498598666861653 ], [ -427441.575121760426555, 6518705.654909958131611 ], [ -427502.355563733552117, 6518658.136612327769399 ], [ -427542.764538891497068, 6518622.148671425879002 ], [ -427594.639421601197682, 6518571.486301396042109 ], [ -427756.052683251502458, 6518401.332887234166265 ], [ -427857.910017327347305, 6518295.11979844328016 ], [ -427961.214504783449229, 6518184.540843463502824 ], [ -428114.612763096578419, 6518026.97275248542428 ], [ -428237.732119913969655, 6517891.941731100901961 ], [ -428306.972843187337276, 6517810.015833336859941 ], [ -428370.758911411918234, 6517728.96414402499795 ], [ -428429.869561023078859, 6517634.637746369466186 ], [ -428511.021469811385032, 6517483.892420464195311 ], [ -428588.054557440336794, 6517331.228457590565085 ], [ -428601.635535317182075, 6517302.757114734500647 ], [ -428638.927564732905012, 6517222.583736815489829 ], [ -428672.323411970864981, 6517145.20581005141139 ], [ -428814.812360186304431, 6516737.367969932034612 ], [ -428838.523411725240294, 6516677.634949897415936 ], [ -428866.798562386771664, 6516614.234584426507354 ], [ -428931.029908574419096, 6516498.962436796166003 ], [ -428977.338816744391806, 6516426.132225603796542 ], [ -429016.523277503671125, 6516373.038182938471437 ], [ -429084.984764341556001, 6516288.856879131868482 ], [ -429161.238615534850396, 6516208.693321313709021 ], [ -429241.945246360031888, 6516140.755750452168286 ], [ -429327.215976307692472, 6516073.866604615002871 ], [ -429414.713096071209293, 6516014.313015784136951 ], [ -429505.438481067714747, 6515961.920183409005404 ], [ -429603.065674493438564, 6515916.513330253772438 ], [ -429707.594676348380744, 6515873.72633117903024 ], [ -429865.557033783930819, 6515810.506761834956706 ], [ -429988.119793147430755, 6515756.543478252366185 ], [ -430092.203517039073631, 6515701.358089292421937 ], [ -430169.125285177258775, 6515658.048294860869646 ], [ -430267.197756566049065, 6515592.560124771669507 ], [ -430349.574179753137287, 6515527.596371927298605 ], [ -430410.577260707854293, 6515473.285668751224875 ], [ -430502.193201630667318, 6515386.668692947365344 ], [ -430593.141225608822424, 6515297.258571775630116 ], [ -430691.881613942445256, 6515199.467357467859983 ], [ -430770.02789647935424, 6515129.442572713829577 ], [ -430817.004721594043076, 6515090.675989001989365 ], [ -430865.651339070696849, 6515056.275163591839373 ], [ -430921.42240395816043, 6515018.556656374596059 ], [ -430973.519925649452489, 6514985.029238678514957 ], [ -430990.21784926840337, 6514974.551948494277894 ], [ -431072.705591946200002, 6514927.055065974593163 ], [ -431133.486033919383772, 6514899.63971003331244 ], [ -431176.232718383951578, 6514876.2406882410869 ], [ -431403.435799093043897, 6514774.089016975834966 ], [ -431572.307466626400128, 6514699.003976901061833 ], [ -431740.95649517828133, 6514620.427338632754982 ], [ -431814.204720120236743, 6514585.853854066692293 ], [ -431969.050131813623011, 6514517.231153313070536 ], [ -432140.927425598492846, 6514438.830850402824581 ], [ -432345.421330185723491, 6514345.065761541947722 ], [ -432544.905857687292155, 6514253.920827125199139 ], [ -432706.207799846713897, 6514181.110364861786366 ], [ -432807.731175450142473, 6514133.4434306435287 ], [ -432905.692327348224353, 6514082.459321251139045 ], [ -433001.872367393691093, 6514024.840671430341899 ], [ -433097.718448966625147, 6513961.286019759252667 ], [ -433182.432581460336223, 6513900.350836593657732 ], [ -433268.816506315895822, 6513834.178180037997663 ], [ -433351.192929502984043, 6513769.577416031621397 ], [ -433464.293532148934901, 6513683.851234505884349 ], [ -433522.179667361371685, 6513643.170892724767327 ], [ -433621.365333658235613, 6513578.746211025863886 ], [ -433693.055085729050916, 6513533.177836424671113 ], [ -433751.831776867969893, 6513497.910530929453671 ], [ -433802.03686721570557, 6513470.849086496047676 ], [ -433912.799760555033572, 6513413.234692967496812 ], [ -434037.032312280265614, 6513357.017398469150066 ], [ -434173.398688502085861, 6513299.752969189547002 ], [ -434322.455486674210988, 6513245.806049039587379 ], [ -434407.837536112696398, 6513217.697922484949231 ], [ -434479.749927165161353, 6513196.747828111983836 ], [ -434547.877455530688167, 6513177.718205003067851 ], [ -434664.54028188198572, 6513151.181555889546871 ], [ -434786.546443791419733, 6513125.168738980777562 ], [ -434921.79962510522455, 6513103.345969044603407 ], [ -435079.205385086941533, 6513085.887794507667422 ], [ -435243.401634006993845, 6513078.206209373660386 ], [ -435384.888706805300899, 6513076.285814203321934 ], [ -435506.226951769902371, 6513078.206209373660386 ], [ -435575.245036061736755, 6513082.396164016798139 ], [ -435709.607661449234001, 6513097.235603768378496 ], [ -435843.747647855139803, 6513113.471727143973112 ], [ -435943.601231096719857, 6513130.406212324276567 ], [ -436009.725008627923671, 6513142.626996343955398 ], [ -436220.452804699598346, 6513188.891556390561163 ], [ -436300.157560107531026, 6513206.349948121234775 ], [ -436813.117773682984989, 6513313.370693916454911 ], [ -436861.319113196514081, 6513323.147535737603903 ], [ -437124.144430959364399, 6513376.571196737699211 ], [ -437197.05869742896175, 6513391.236575747840106 ], [ -437485.932776037545409, 6513449.19999463390559 ], [ -437648.570552086515818, 6513477.308907131664455 ], [ -437778.591717333009001, 6513493.371185690164566 ], [ -437824.7893060122733, 6513498.783482220955193 ], [ -437876.107591267907992, 6513502.100697974674404 ], [ -437986.981804098002613, 6513507.163819318637252 ], [ -438046.426412181637716, 6513508.909723948687315 ], [ -438110.323799896927085, 6513508.385952521115541 ], [ -438221.865929671854246, 6513506.290867141447961 ], [ -438287.099151276692282, 6513500.703975391574204 ], [ -438358.788903347624, 6513494.418726678006351 ], [ -438444.393591767642647, 6513484.990862553939223 ], [ -438573.078923124645371, 6513469.277779537253082 ], [ -438693.971890126122162, 6513451.64424410648644 ], [ -438918.503303056175355, 6513418.821525695733726 ], [ -438978.393189102876931, 6513405.901980733498931 ], [ -439049.303704738267697, 6513385.125998003408313 ], [ -439209.492451989790425, 6513328.559720996767282 ], [ -439324.485485979181249, 6513286.833610022440553 ], [ -439424.56170820229454, 6513260.471196427941322 ], [ -439510.389035604021046, 6513244.583954595960677 ], [ -439617.701024728710763, 6513230.268004552461207 ], [ -439744.15996626985725, 6513223.808376660570502 ], [ -439838.336255480942782, 6513223.284623268991709 ], [ -440096.374835139780771, 6513222.935454359278083 ], [ -440356.97376308683306, 6513222.935454359278083 ], [ -440590.522054771194234, 6513222.76086991187185 ], [ -440900.21287815796677, 6513222.935454359278083 ], [ -440998.285349546873476, 6513221.538778870366514 ], [ -441043.703701790480409, 6513219.269181698560715 ], [ -441093.24087519349996, 6513216.126663566567004 ], [ -441175.7286178713548, 6513206.17536402028054 ], [ -441226.045027709915303, 6513200.239506827667356 ], [ -441306.417700062680524, 6513183.479462429881096 ], [ -441404.044893488404341, 6513160.434456778690219 ], [ -441543.639534943155013, 6513127.78747523855418 ], [ -441653.957150319241919, 6513104.218878736719489 ], [ -441765.499280094110873, 6513079.428279259242117 ], [ -441827.392916975135449, 6513065.461777029559016 ], [ -442071.516560284828302, 6513013.611343591473997 ], [ -442127.398944663058501, 6513002.61280854512006 ], [ -442332.783405176596716, 6512961.237498040311038 ], [ -442481.506244876480196, 6512931.559132616966963 ], [ -442644.811937870224938, 6512899.087631143629551 ], [ -442891.273290486482438, 6512854.74503374285996 ], [ -442942.814214723824989, 6512846.539933490566909 ], [ -443013.279452395916451, 6512834.494162742979825 ], [ -443161.111736169375945, 6512821.051801583729684 ], [ -443271.429351545521058, 6512820.004345786757767 ], [ -443330.206042684381828, 6512821.575529531575739 ], [ -443385.309190627012867, 6512826.638234740123153 ], [ -443619.748038237681612, 6512840.255181347951293 ], [ -443809.770409021759406, 6512845.667050962336361 ], [ -444069.59010053332895, 6512850.031464518979192 ], [ -444269.631225488847122, 6512845.317897978238761 ], [ -444393.975096704845782, 6512839.906028592027724 ], [ -444516.092578105104621, 6512828.209419745951891 ], [ -444620.955538432404865, 6512810.053522323258221 ], [ -444704.333837036509067, 6512790.151911271736026 ], [ -444786.821579714363907, 6512765.885976553894579 ], [ -444880.441271471558139, 6512732.542254198342562 ], [ -444958.698873499175534, 6512700.595253503881395 ], [ -445024.600012048787903, 6512669.346667158417404 ], [ -445045.528076317918021, 6512658.523161953315139 ], [ -445146.940132430638187, 6512603.183848388493061 ], [ -445273.287754480959848, 6512524.103389209136367 ], [ -445350.432161600736436, 6512476.969699925743043 ], [ -445436.927405947062653, 6512427.043195752426982 ], [ -445553.924190770834684, 6512370.832596772350371 ], [ -445673.258684901229572, 6512322.477821607142687 ], [ -445751.627606419671793, 6512296.816737924702466 ], [ -445829.439930484164506, 6512274.821586637757719 ], [ -445892.224123291613068, 6512262.07839079760015 ], [ -445977.272214257624, 6512247.938703298568726 ], [ -446057.310928137972951, 6512239.734204336069524 ], [ -446126.662970902223606, 6512235.544676088728011 ], [ -446198.352722973097116, 6512234.846421585418284 ], [ -446279.838590233761352, 6512237.814003625884652 ], [ -446358.986748187744524, 6512243.923734706826508 ], [ -446548.786479990230873, 6512262.951211804524064 ], [ -446752.055870178795885, 6512283.898943582549691 ], [ -446862.150846573349554, 6512290.183273448608816 ], [ -446956.54977476602653, 6512294.19826447032392 ], [ -447074.771073988580611, 6512292.801745633594692 ], [ -447144.234436243597884, 6512290.183273448608816 ], [ -447282.493243808741681, 6512280.058522121980786 ], [ -447402.273015902377665, 6512266.617061041295528 ], [ -447470.400544267788064, 6512257.539723042398691 ], [ -447544.539325136167463, 6512243.400043293833733 ], [ -447616.45171618857421, 6512229.085824189707637 ], [ -447713.299673178757075, 6512208.487357201054692 ], [ -447832.634167309093755, 6512178.811689759604633 ], [ -447882.839257656829432, 6512163.275647456757724 ], [ -448014.86417373776203, 6512123.650143457576632 ], [ -448190.415010718745179, 6512067.616164115257561 ], [ -448312.198533646471333, 6512032.35510047338903 ], [ -448500.551112068817019, 6511973.528808707371354 ], [ -448654.060689872654621, 6511927.969267536886036 ], [ -448844.194380147615448, 6511875.602288489229977 ], [ -449036.554460238374304, 6511831.788837139494717 ], [ -449120.934634259727318, 6511818.348103709518909 ], [ -449240.157808899297379, 6511799.496202672831714 ], [ -449427.397192413569428, 6511779.422466343268752 ], [ -449526.026261256425641, 6511770.520216242410243 ], [ -449631.445819037558977, 6511765.80726417992264 ], [ -449841.72833714610897, 6511760.046993083320558 ], [ -450075.833226284419652, 6511755.508600492030382 ], [ -450308.268323060648981, 6511750.970210391096771 ], [ -450526.788483488024212, 6511745.559056214056909 ], [ -450586.010452589951456, 6511744.511736458167434 ], [ -450711.690157695498783, 6511741.020671565085649 ], [ -450941.119628220505547, 6511736.656842517666519 ], [ -451259.716010870761238, 6511729.500167858786881 ], [ -451546.920297117496375, 6511721.819840960204601 ], [ -451678.945213198370766, 6511721.296182568185031 ], [ -451769.002681249985471, 6511720.772524208761752 ], [ -451850.822506983124185, 6511724.787239146418869 ], [ -451916.278367569495458, 6511728.976508980616927 ], [ -452035.390222718357109, 6511741.893437650986016 ], [ -452117.210048451437615, 6511752.715744751505554 ], [ -452213.72404696920421, 6511768.251016766764224 ], [ -452321.481314057076816, 6511791.641256575472653 ], [ -452423.561287114513107, 6511817.126219935715199 ], [ -452526.086538135132287, 6511848.022479331120849 ], [ -452603.787542708800174, 6511873.158504220657051 ], [ -452706.98071067413548, 6511910.862684625200927 ], [ -452816.296450633148197, 6511958.516824923455715 ], [ -452909.47086442715954, 6511999.712566487491131 ], [ -453026.245010269340128, 6512063.775842966511846 ], [ -453105.281848732498474, 6512109.336131365969777 ], [ -453175.079169459990226, 6512151.230870672501624 ], [ -453257.010314683720935, 6512205.34522267151624 ], [ -453352.299798802821897, 6512273.948764379136264 ], [ -453445.251573615241796, 6512348.837248871102929 ], [ -453547.220227181795053, 6512435.422448157332838 ], [ -453648.075685840507504, 6512532.308169946074486 ], [ -453760.174413069325965, 6512656.42829161323607 ], [ -453836.428264262794983, 6512746.159046061336994 ], [ -453913.683990873279981, 6512848.460275373421609 ], [ -453989.15860563114984, 6512954.428922452032566 ], [ -454039.808973942068405, 6513034.037233154289424 ], [ -454115.728866663121153, 6513164.799036257900298 ], [ -454214.135296524327714, 6513327.33761434070766 ], [ -454246.417948854388669, 6513357.71574761159718 ], [ -454326.790621207095683, 6513473.817111566662788 ], [ -454374.991960720566567, 6513546.097579996101558 ], [ -454446.236434828315396, 6513666.741023477166891 ], [ -454497.554720083950087, 6513752.641623457893729 ], [ -454547.75981043180218, 6513832.432206817902625 ], [ -454599.189415178261697, 6513910.826767392456532 ], [ -454646.054920802242123, 6513979.793642698787153 ], [ -454682.34507480089087, 6514027.285090853460133 ], [ -454736.668986307980958, 6514090.665646426379681 ], [ -454769.062958128808532, 6514126.110080507583916 ], [ -454798.896581661363598, 6514156.665748928673565 ], [ -454835.40937464160379, 6514186.872320557013154 ], [ -454856.671397383091971, 6514199.967689326032996 ], [ -454877.710781143105123, 6514208.174130978062749 ], [ -454887.172937860479578, 6514210.269393980503082 ], [ -454899.084123375301715, 6514211.666236277669668 ], [ -454929.140385889506433, 6514213.237684141844511 ], [ -454947.508101870480459, 6514207.47571009490639 ], [ -454952.294839974550996, 6514206.07886850554496 ], [ -454987.360479574475903, 6514199.26926913484931 ], [ -455019.30917343206238, 6514188.967578168027103 ], [ -455049.142796964617446, 6514174.999204111285508 ], [ -455068.846346835081931, 6514162.427687610499561 ], [ -455090.776286521286238, 6514137.110108149237931 ], [ -455106.47233472316293, 6514103.237053954973817 ], [ -455118.717478710517753, 6514058.888006947003305 ], [ -455145.656795482442249, 6513933.175464063882828 ], [ -455172.262153781950474, 6513801.703138367272913 ], [ -455181.390352027083281, 6513757.006515137851238 ], [ -455204.099528148886748, 6513683.851234505884349 ], [ -455224.470994964067359, 6513637.758501802571118 ], [ -455244.619822797656525, 6513602.83993574231863 ], [ -455290.149494532088283, 6513542.256573042832315 ], [ -455322.87742482527392, 6513510.830219467170537 ], [ -455362.729802529269364, 6513477.308907131664455 ], [ -455410.374544588732533, 6513443.438552304171026 ], [ -455463.919219660398085, 6513408.171629063785076 ], [ -455527.371329412504565, 6513372.031918025575578 ], [ -455607.855321256094612, 6513338.336580755189061 ], [ -455682.773338559898548, 6513315.814903289079666 ], [ -455762.700732949539088, 6513296.435834508389235 ], [ -455917.546144642983563, 6513259.249099818058312 ], [ -455997.139580560207833, 6513243.012690577656031 ], [ -456066.046345361275598, 6513226.601728644222021 ], [ -456129.164496641024016, 6513212.285809693858027 ], [ -456181.707296295440756, 6513195.525740911252797 ], [ -456220.780437563895248, 6513181.733626422472298 ], [ -456264.195038973237388, 6513162.52945464104414 ], [ -456292.358870143943932, 6513145.769486579112709 ], [ -456338.222500350850169, 6513113.995473588816822 ], [ -456354.475146006559953, 6513100.552658643573523 ], [ -456372.286264533526264, 6513084.491142136976123 ], [ -456418.483853212732356, 6513034.560974574647844 ], [ -456425.163022660359275, 6513026.181115821003914 ], [ -456489.617007829656359, 6512945.874566187150776 ], [ -456579.340517408971209, 6512835.716196658089757 ], [ -456604.498722328222357, 6512802.02304193098098 ], [ -456616.409907843102701, 6512786.136679753661156 ], [ -456658.711314344604034, 6512725.210144780576229 ], [ -456682.645004865189549, 6512689.247987842187285 ], [ -456722.942660532367881, 6512628.671309637837112 ], [ -456984.98874185961904, 6512235.02098520565778 ], [ -457061.242593053146265, 6512122.079092140309513 ], [ -457143.841655221709516, 6512000.410801162011921 ], [ -457161.652773748617619, 6511974.052483051083982 ], [ -457258.166772266326007, 6511842.785817081108689 ], [ -457306.034153307555243, 6511783.088101520203054 ], [ -457330.969719245156739, 6511749.050123019143939 ], [ -457337.648888692783657, 6511739.973352384753525 ], [ -457363.920288520050235, 6511703.317264501005411 ], [ -457387.853979040577542, 6511670.676027587614954 ], [ -457497.28103849029867, 6511521.435647554695606 ], [ -457539.693764482508413, 6511465.929385411553085 ], [ -457592.347883627808187, 6511393.492527432739735 ], [ -457680.958198299224023, 6511270.962224591523409 ], [ -457693.648620249703526, 6511251.937026789411902 ], [ -457734.391553879948333, 6511191.370862468145788 ], [ -457786.155117098882329, 6511110.034866058267653 ], [ -457820.998117717215791, 6511060.989297246560454 ], [ -457829.903676980640739, 6511048.946123701520264 ], [ -457844.597849765326828, 6511026.77974861767143 ], [ -457863.744802181783598, 6511000.599067068658769 ], [ -457880.999323254800402, 6510959.408295651897788 ], [ -457886.453978303645272, 6510937.242160235531628 ], [ -457887.901131683960557, 6510914.377940986305475 ], [ -457889.12564608262619, 6510884.532375727780163 ], [ -457894.58030113147106, 6510849.799952752888203 ], [ -457910.053710351872724, 6510806.166462002322078 ], [ -457925.749758553633001, 6510769.339974713511765 ], [ -457949.01553212950239, 6510724.136121783405542 ], [ -457963.821024404955097, 6510694.116711005568504 ], [ -457974.17373704869533, 6510677.187207565642893 ], [ -457984.415130201668944, 6510664.271939555183053 ], [ -458001.447012292977888, 6510643.851894745603204 ], [ -458007.90354275907157, 6510636.870694395154715 ], [ -458025.046744341263548, 6510621.861133569851518 ], [ -458054.880367873876821, 6510595.158144931308925 ], [ -458067.570789824298117, 6510586.431696724146605 ], [ -458085.827186314330902, 6510574.214684682898223 ], [ -458109.64955734409159, 6510560.252407272346318 ], [ -458132.692691938369535, 6510548.035433849319816 ], [ -458163.973468851298094, 6510533.200561781413853 ], [ -458190.690146641631145, 6510522.728903380222619 ], [ -458212.954044800251722, 6510515.224223003722727 ], [ -458252.806422504247166, 6510502.483734682202339 ], [ -458357.558063340722583, 6510473.861339245922863 ], [ -458629.84553782112198, 6510396.02288612909615 ], [ -458774.783514833892696, 6510355.184169713407755 ], [ -458866.288136266055517, 6510330.052752017043531 ], [ -458891.780299657664727, 6510322.199199626222253 ], [ -458908.144264804257546, 6510311.378761867061257 ], [ -458915.268712215009145, 6510309.109962195158005 ], [ -458925.955383331165649, 6510306.143071252852678 ], [ -458927.625175693130586, 6510305.619502373971045 ], [ -458936.196776484197471, 6510303.176181374117732 ], [ -458947.21740607265383, 6510301.256429665721953 ], [ -458957.458799225685652, 6510300.558338244445622 ], [ -458966.586997470702045, 6510300.558338244445622 ], [ -458974.824639789410867, 6510301.430952529422939 ], [ -458982.505684654170182, 6510302.827135575935245 ], [ -458992.079160862427671, 6510305.794025328941643 ], [ -458997.979093874571845, 6510308.062824094668031 ], [ -459003.656387904949952, 6510310.680669593624771 ], [ -459014.454378511873074, 6510317.312548566609621 ], [ -459022.024103885807563, 6510323.246339516714215 ], [ -459027.478758934652433, 6510328.482040943577886 ], [ -459032.933413983497303, 6510334.241316336207092 ], [ -459036.829596161376685, 6510339.127977388910949 ], [ -459044.28800204442814, 6510355.184169713407755 ], [ -459056.087868068541866, 6510371.414917510002851 ], [ -459139.354847181937657, 6510494.979072651825845 ], [ -459148.928323390136939, 6510509.81387625169009 ], [ -459160.060272469418123, 6510517.842133988626301 ], [ -459168.075275806593709, 6510530.059062871150672 ], [ -459179.875141830591019, 6510549.606186565943062 ], [ -459184.773199425486382, 6510552.57316473312676 ], [ -459201.693762026145123, 6510577.181671663187444 ], [ -459207.92765351064736, 6510585.035465863533318 ], [ -459228.633078798069619, 6510597.427022974006832 ], [ -459254.459200662153307, 6510609.469539899379015 ], [ -459285.29469961184077, 6510621.686603952199221 ], [ -459317.911310414317995, 6510627.446083256974816 ], [ -459334.497914542560466, 6510630.238559513352811 ], [ -459352.309033069468569, 6510633.031036709435284 ], [ -459380.250225258583669, 6510637.219754274003208 ], [ -459405.853708141017705, 6510641.059413899667561 ], [ -459410.195168281963561, 6510642.281124155037105 ], [ -459420.881839398120064, 6510645.073605414479971 ], [ -459470.864290764264297, 6510658.337904250249267 ], [ -459496.579093137581367, 6510665.144592166878283 ], [ -459570.38391553342808, 6510684.517503775656223 ], [ -459619.475810973264743, 6510697.432803358882666 ], [ -459632.166232923686039, 6510701.09795961342752 ], [ -459651.981102284917142, 6510706.159368535503745 ], [ -459750.944129600131419, 6510730.244736135937274 ], [ -459754.951631268661004, 6510731.815523413009942 ], [ -459781.556989568285644, 6510741.763849753886461 ], [ -459827.97721722908318, 6510759.740680289454758 ], [ -459875.399320307013113, 6510781.382741635665298 ], [ -459894.546272723528091, 6510791.156594331376255 ], [ -459953.990880807046779, 6510816.638478817418218 ], [ -459969.130331554973964, 6510822.747161407023668 ], [ -460014.548683798639104, 6510843.342181625775993 ], [ -460032.359802325488999, 6510850.498090473003685 ], [ -460055.402936919825152, 6510858.526678490452468 ], [ -460102.713720506930258, 6510866.555274290964007 ], [ -460138.89255501475418, 6510871.09317971020937 ], [ -460160.043258265475743, 6510873.362133350223303 ], [ -460231.065093391516712, 6510878.423647561110556 ], [ -460260.898716924129985, 6510881.216208449564874 ], [ -460328.358328344882466, 6510886.626797849312425 ], [ -460336.595970663591288, 6510884.008770279586315 ], [ -460353.071255300950725, 6510878.772717622108757 ], [ -460359.305146785452962, 6510871.965854114852846 ], [ -460373.776680588605814, 6510862.890044809319079 ], [ -460384.685990686295554, 6510857.828540093265474 ], [ -460393.591549949836917, 6510856.083194357343018 ], [ -460406.059332918550353, 6510857.479470917023718 ], [ -460410.512112550379243, 6510858.875747711397707 ], [ -460414.185655746492557, 6510859.922955461777747 ], [ -460426.319480242964346, 6510868.649691868573427 ], [ -460437.785387794661801, 6510882.787024363875389 ], [ -460454.14935294125462, 6510913.505262111313641 ], [ -460461.162480861297809, 6510928.515351545996964 ], [ -460464.836024057469331, 6510941.605568028055131 ], [ -460486.098046798957512, 6510969.356895403936505 ], [ -460522.054242325189989, 6511008.104187315329909 ], [ -460536.19181765592657, 6511022.06721983011812 ], [ -460559.680230213329196, 6511043.186351242475212 ], [ -460588.511978328751866, 6511067.44723810069263 ], [ -460604.764623984578066, 6511081.235831370577216 ], [ -460617.23240695334971, 6511091.88273555599153 ], [ -460631.258662793436088, 6511103.227812458761036 ], [ -460643.503806780616287, 6511112.827505052089691 ], [ -460671.222359988139942, 6511134.470489183440804 ], [ -460677.456251472525764, 6511139.357622460462153 ], [ -460684.469379392510746, 6511145.466543112881482 ], [ -460687.58632513473276, 6511148.084653344936669 ], [ -460693.931536110001616, 6511154.891743819229305 ], [ -460698.05035726929782, 6511161.175216916017234 ], [ -460700.388066575978883, 6511177.756627143360674 ], [ -460703.616331809025723, 6511210.9195472067222 ], [ -460708.180430931504816, 6511215.981267740949988 ], [ -460715.972795287030749, 6511224.359294734895229 ], [ -460719.757657973910682, 6511229.071938641369343 ], [ -460727.216063857194968, 6511232.388245223090053 ], [ -460731.223565525666345, 6511234.482755326665938 ], [ -460737.123498537752312, 6511236.053638251498342 ], [ -460742.132875623530708, 6511236.751808535307646 ], [ -460758.496840770123526, 6511235.180925479158759 ], [ -460774.415527953475248, 6511231.86461777985096 ], [ -460795.343592222721782, 6511230.991905448958278 ], [ -460812.041515841672663, 6511232.213702738285065 ], [ -460847.997711367846932, 6511248.795255212113261 ], [ -460884.621823838853743, 6511269.740421586669981 ], [ -460898.87071866041515, 6511277.943959519267082 ], [ -460919.687463438720442, 6511294.700147360563278 ], [ -460928.704342192970216, 6511302.030990203842521 ], [ -460940.392888726375531, 6511313.899987612850964 ], [ -460995.607356159714982, 6511369.405230707488954 ], [ -461017.31465686444426, 6511390.699793789535761 ], [ -461046.925641415466089, 6511420.372636936604977 ], [ -461061.619814200210385, 6511434.860004867427051 ], [ -461068.855581101786811, 6511441.841877980157733 ], [ -461078.874335273110773, 6511451.267416020855308 ], [ -461094.125105511746369, 6511462.612985300831497 ], [ -461109.598514732031617, 6511468.198502042330801 ], [ -461135.201997614523862, 6511474.133117705583572 ], [ -461145.554710258264095, 6511472.562189614400268 ], [ -461156.13006188365398, 6511472.213094524107873 ], [ -461166.594094018277247, 6511473.260379842482507 ], [ -461179.84111342264805, 6511476.751331850886345 ], [ -461192.420215882302728, 6511482.511405886150897 ], [ -461203.663484452350531, 6511490.540606676600873 ], [ -461213.459599642083049, 6511500.315296409651637 ], [ -461221.363283488550223, 6511511.486384519375861 ], [ -461227.151897009753156, 6511524.053876655176282 ], [ -461230.71412071515806, 6511537.494132407940924 ], [ -461231.827315623115283, 6511551.458057593554258 ], [ -461230.491481733566616, 6511565.422006327658892 ], [ -461226.595299555803649, 6511579.036879017949104 ], [ -461220.361408071417827, 6511591.604473673738539 ], [ -461212.012446261942387, 6511602.950235233642161 ], [ -461207.114388666930608, 6511607.663094603456557 ] ] } }
]
}
