{
"type": "FeatureCollection",
"name": "cullompton_cardiff",
"crs": { "type": "name", "properties": { "name": "urn:ogc:def:crs:EPSG::3857" } },
"features": [
{ "type": "Feature", "properties": { }, "geometry": { "type": "LineString", "coordinates": [ [ -377619.089863850560505, 6596346.163396908901632 ], [ -377613.07861134770792, 6596360.447927657514811 ], [ -377608.625831715995446, 6596371.910840646363795 ], [ -377603.505135139450431, 6596392.191418156027794 ], [ -377595.601451293157879, 6596390.780593752861023 ], [ -377582.465751379611902, 6596393.954948998056352 ], [ -377536.045523718756158, 6596411.06121779885143 ], [ -377512.334472179820295, 6596420.055249688215554 ], [ -377486.84230878809467, 6596429.225645271129906 ], [ -377457.899241181847174, 6596438.572405140846968 ], [ -377413.482764355372638, 6596448.977301261387765 ], [ -377385.54157216619933, 6596456.031475614756346 ], [ -377346.023152934620157, 6596467.847231208346784 ], [ -377342.90620719245635, 6596468.729004695080221 ], [ -377326.430922555038705, 6596473.843292779289186 ], [ -377319.529114125820342, 6596478.075809463858604 ], [ -377307.172650647757109, 6596486.893559547141194 ], [ -377295.372784623701591, 6596497.827582783997059 ], [ -377285.465349943086039, 6596509.643398432992399 ], [ -377272.886247483431362, 6596528.866179570555687 ], [ -377263.090132293640636, 6596546.149085378274322 ], [ -377256.299643355247099, 6596553.732412657700479 ], [ -377249.843112889269833, 6596556.730474206618965 ], [ -377251.178946778760292, 6596561.139390239492059 ], [ -377250.288390852394514, 6596567.311876652762294 ], [ -377246.614847656222992, 6596572.249869119375944 ], [ -377241.160192607378121, 6596575.247937419451773 ], [ -377235.037620613758918, 6596575.247937419451773 ], [ -377233.924425705801696, 6596583.184005847200751 ], [ -377228.024492693773936, 6596599.056165678426623 ], [ -377220.009489356656559, 6596615.633787543512881 ], [ -377213.664278381445911, 6596625.333475407212973 ], [ -377207.319067406235263, 6596632.035084615461528 ], [ -377197.411632725619711, 6596641.205716592259705 ], [ -377187.949476008187048, 6596648.083697286434472 ], [ -377173.032664241851307, 6596659.547011228278279 ], [ -377156.668699095316697, 6596671.363059245049953 ], [ -377135.295356862945482, 6596685.119076834060252 ], [ -377127.948270470660646, 6596690.057140043005347 ], [ -377119.821947642718442, 6596695.347925340756774 ], [ -377121.93701796780806, 6596699.933275355957448 ], [ -377122.382295930990949, 6596705.047707232646644 ], [ -377121.046462041442282, 6596709.985782408155501 ], [ -377117.929516299220268, 6596714.042060662992299 ], [ -377113.699375649041031, 6596716.863820630125701 ], [ -377108.689998563379049, 6596717.921980867162347 ], [ -377103.235343514534179, 6596717.040180658921599 ], [ -377098.559924901172053, 6596714.218420632183552 ], [ -377095.220340177358594, 6596709.809422529302537 ], [ -377093.884506287868135, 6596704.518627924844623 ], [ -377094.663742723409086, 6596699.051477077417076 ], [ -377088.095892766606994, 6596696.406082809902728 ], [ -377073.513039472745731, 6596693.584329863078892 ], [ -377058.818866687943228, 6596693.231610814109445 ], [ -377036.55496852932265, 6596693.760689393617213 ], [ -377002.268565364996903, 6596699.404196375980973 ], [ -376958.742644464829937, 6596705.576786573044956 ], [ -376918.111030325293541, 6596711.749381402507424 ], [ -376883.379349197784904, 6596716.863820630125701 ], [ -376866.681425578834023, 6596721.272822516970336 ], [ -376848.981626542692538, 6596723.036423931829631 ], [ -376817.589530138939153, 6596726.563627899624407 ], [ -376801.670842955529224, 6596733.618040372617543 ], [ -376789.425698968290817, 6596742.2597038988024 ], [ -376780.074861741624773, 6596750.195933505892754 ], [ -376776.846596508636139, 6596753.899509942159057 ], [ -376772.950414330873173, 6596756.897644470445812 ], [ -376766.493883864837699, 6596759.719419143162668 ], [ -376756.363810202630702, 6596760.953945865854621 ], [ -376752.467628024867736, 6596759.366697255522013 ], [ -376746.122417049657088, 6596756.368561827577651 ], [ -376738.330052694131155, 6596763.59936089720577 ], [ -376732.207480700570159, 6596769.595638119615614 ], [ -376726.975464633258525, 6596780.353675860911608 ], [ -376716.06615453545237, 6596859.716684233397245 ], [ -376686.900447947671637, 6597037.316235576756299 ], [ -376661.742243028362282, 6597215.977847059257329 ], [ -376650.94425242143916, 6597320.91910273488611 ], [ -376634.135009311663453, 6597389.175730722956359 ], [ -376624.450213612639345, 6597507.523836829699576 ], [ -376563.669771639513783, 6598244.107121994718909 ], [ -376530.051285419904161, 6598571.675052317790687 ], [ -376526.377742223790847, 6598611.3651063721627 ], [ -376508.45530420599971, 6598787.414855823852122 ], [ -376456.914379968715366, 6599202.857815222814679 ], [ -376399.028244756278582, 6599663.662417015992105 ], [ -376348.155237463768572, 6600062.917914844118059 ], [ -376309.750013140030205, 6600365.151165938004851 ], [ -376275.240970994171221, 6600610.580503860488534 ], [ -376235.611232271709014, 6600857.958106673322618 ], [ -376191.862672390008811, 6601095.991087337955832 ], [ -376142.882096440938767, 6601330.501779600046575 ], [ -376029.336215831805021, 6601766.720050795003772 ], [ -375937.497635927342344, 6602074.31019951030612 ], [ -375865.91920334729366, 6602285.90643345285207 ], [ -375793.672853822412435, 6602478.800824034959078 ], [ -375764.173188762215432, 6602558.571831078268588 ], [ -375667.659190244448837, 6602802.125271132215858 ], [ -375534.187120783317368, 6603128.639394072815776 ], [ -375431.216591799573507, 6603370.444698986597359 ], [ -375226.83400670310948, 6603862.372776983305812 ], [ -374911.354569794959389, 6604608.705250232480466 ], [ -374794.246465480420738, 6604881.0946503886953 ], [ -374638.510497860668693, 6605184.740916534326971 ], [ -374557.581228053895757, 6605338.863343081437051 ], [ -374448.154168604116421, 6605538.008628319017589 ], [ -374354.311837865388952, 6605701.494978562928736 ], [ -374126.552159702347126, 6606069.086318206042051 ], [ -373996.19703598349588, 6606263.128915894776583 ], [ -373754.188462998892646, 6606598.256040123291314 ], [ -373675.819541480450425, 6606698.549638722091913 ], [ -373542.904069473210257, 6606865.414060343056917 ], [ -373397.966092460381333, 6607041.287531497888267 ], [ -373295.663480421353597, 6607159.598108989186585 ], [ -373226.534076638752595, 6607236.589190852828324 ], [ -373115.993822281016037, 6607358.787526774220169 ], [ -372885.228517866577022, 6607598.774808288551867 ], [ -372711.681431719858665, 6607765.48091631103307 ], [ -372539.247540481039323, 6607927.422185946255922 ], [ -372352.342115439183544, 6608092.545523959212005 ], [ -372164.434814980137162, 6608247.782148486934602 ], [ -371971.629456926195417, 6608403.374928191304207 ], [ -371774.927916694490705, 6608553.672227325849235 ], [ -371355.253436403814703, 6608845.090805970132351 ], [ -371132.39181583566824, 6608983.385784636251628 ], [ -370918.101796058646869, 6609110.732261925004423 ], [ -370707.819277950096875, 6609228.189500732347369 ], [ -370531.266565552039538, 6609324.276069739833474 ], [ -370249.739573335857131, 6609464.34545290004462 ], [ -370023.315729062305763, 6609569.266580577939749 ], [ -369846.540377682598773, 6609645.57369695790112 ], [ -369684.236560106044635, 6609713.402839910238981 ], [ -369550.207893190905452, 6609764.275064670480788 ], [ -369327.902870076766703, 6609847.826311856508255 ], [ -369101.256386821623892, 6609924.842590498737991 ], [ -368873.71934764017351, 6609996.206942757591605 ], [ -368642.39744577172678, 6610065.628801110200584 ], [ -368181.423434396798257, 6610194.228602745570242 ], [ -367940.973334283335134, 6610257.646004370413721 ], [ -367702.749623985728249, 6610325.833506104536355 ], [ -367577.292557861714158, 6610364.873755428940058 ], [ -367460.295773038000334, 6610406.034038230776787 ], [ -367228.083315243187826, 6610495.421457108110189 ], [ -367049.081574047566392, 6610575.623645045794547 ], [ -366854.272465159359854, 6610667.662803661078215 ], [ -366645.882378394366242, 6610781.609064052812755 ], [ -366402.87192999268882, 6610931.773216691799462 ], [ -366273.407362200086936, 6611019.0463503068313 ], [ -366132.810845328203868, 6611120.277280239388347 ], [ -365936.888541532040108, 6611266.560828051529825 ], [ -365519.217812075687107, 6611587.934437545016408 ], [ -365334.984054812812246, 6611727.159014256671071 ], [ -365126.260009575402364, 6611883.877826923504472 ], [ -364910.745475399657153, 6612037.242536371573806 ], [ -364709.479836045415141, 6612180.538648884743452 ], [ -364488.844605293124914, 6612324.013956828974187 ], [ -364146.871129576175008, 6612531.103426876477897 ], [ -363836.95766720775282, 6612706.391427418217063 ], [ -363605.079167885356583, 6612827.964334651827812 ], [ -363366.187540642975364, 6612946.711702357046306 ], [ -363110.486670290818438, 6613067.758033322170377 ], [ -362843.208572896139231, 6613184.565016435459256 ], [ -362570.921098415798042, 6613294.835160385817289 ], [ -362281.935700316447765, 6613404.399910886771977 ], [ -362003.748292824078817, 6613501.242229941301048 ], [ -361790.794106936547905, 6613569.63338781055063 ], [ -361532.644207786943298, 6613643.150099673308432 ], [ -361353.753786082204897, 6613694.400119855999947 ], [ -360881.202547664695885, 6613824.647300101816654 ], [ -360358.334899408684578, 6613966.73748916015029 ], [ -359991.31453826330835, 6614066.767629222944379 ], [ -359832.238985919684637, 6614114.662350275553763 ], [ -359768.230278713570442, 6614133.219420599751174 ], [ -359391.413802378345281, 6614257.994715715758502 ], [ -359088.736106911441311, 6614375.348848044872284 ], [ -358940.681184156390373, 6614437.031135192140937 ], [ -358793.071539364522323, 6614502.602212118916214 ], [ -358649.803354713541921, 6614571.885428334586322 ], [ -358493.510789639782161, 6614646.118094399571419 ], [ -358430.94923581398325, 6614682.35094892885536 ], [ -358312.505297609895933, 6614741.737826997414231 ], [ -357915.762632422731258, 6614979.28963438142091 ], [ -357694.904762688849587, 6615126.172203604131937 ], [ -357462.358346421737224, 6615290.556533946655691 ], [ -357231.927000479598064, 6615457.24207010678947 ], [ -357185.172814346442465, 6615492.064396258443594 ], [ -357010.512533291825093, 6615626.75925125181675 ], [ -356817.929814219474792, 6615775.067559516988695 ], [ -356620.782996024528984, 6615921.787592196837068 ], [ -356445.232159043545835, 6616034.922901638783514 ], [ -356360.40670705906814, 6616087.602062028832734 ], [ -356274.802018639049493, 6616136.7460130257532 ], [ -356132.869667877617758, 6616211.876722530461848 ], [ -356042.700880335120019, 6616257.309038075618446 ], [ -355865.257612010580488, 6616336.330045724287629 ], [ -355771.637920253444463, 6616373.63105405960232 ], [ -355683.584203035978135, 6616407.043001615442336 ], [ -355592.413540076289792, 6616439.040814300999045 ], [ -355495.788222067756578, 6616470.861967163160443 ], [ -355395.155402390635572, 6616499.854680480435491 ], [ -355328.252388423890807, 6616518.947498822584748 ], [ -355270.032294738979544, 6616533.267141713760793 ], [ -355213.259354434383567, 6616546.526092584244907 ], [ -355146.356340467638802, 6616561.729715937748551 ], [ -354946.871812966128346, 6616598.501386486925185 ], [ -354801.933835953299422, 6616618.3015849981457 ], [ -354722.451719526899979, 6616627.671338438987732 ], [ -354602.337988960905932, 6616637.571466899476945 ], [ -354496.695792198122945, 6616647.294818974100053 ], [ -354403.187419931753539, 6616649.946644264273345 ], [ -354113.422785396920517, 6616651.891316689550877 ], [ -353863.176570093550254, 6616655.603874412365258 ], [ -353489.365720009722281, 6616662.675417584367096 ], [ -353305.131962746905629, 6616668.332656505517662 ], [ -353114.775633490411565, 6616678.056045009754598 ], [ -352841.931561556062661, 6616696.795698972418904 ], [ -352699.108654868381564, 6616709.701334591954947 ], [ -352571.536518419219647, 6616722.960570397786796 ], [ -352489.048775741423015, 6616732.860813763923943 ], [ -352400.327141579124145, 6616743.468230616301298 ], [ -352228.67248677596217, 6616767.865341387689114 ], [ -352065.923391236166935, 6616794.030439308844507 ], [ -351904.621449076745193, 6616822.6707096491009 ], [ -351692.446499624755234, 6616864.040165415965021 ], [ -351480.494189154356718, 6616911.067235822789371 ], [ -351313.292313982849009, 6616950.669188254512846 ], [ -351136.07168463995913, 6616996.635979730635881 ], [ -351070.61582405352965, 6617014.138787215575576 ], [ -350898.849849759484641, 6617060.813122939318419 ], [ -350737.993185563187581, 6617104.128558255732059 ], [ -350458.358624690503348, 6617179.621720339171588 ], [ -350171.37697742547607, 6617256.176385168917477 ], [ -350026.550319903413765, 6617292.42075954284519 ], [ -349879.385953074670397, 6617325.659643527120352 ], [ -349620.011539526400156, 6617377.286262083798647 ], [ -349497.226141181366984, 6617394.966685535386205 ], [ -349336.814754948252812, 6617417.9512929469347 ], [ -349224.938666701084003, 6617432.979724894277751 ], [ -348999.739336826256476, 6617457.909302083775401 ], [ -348770.643824773724191, 6617483.192567617632449 ], [ -348634.054809570370708, 6617496.806665926240385 ], [ -348481.435787692782469, 6617516.078609925694764 ], [ -348378.576578199805226, 6617532.521680480800569 ], [ -348273.37965940014692, 6617550.025630485266447 ], [ -348162.616766060818918, 6617572.303439014591277 ], [ -348051.297275267541409, 6617598.824718469753861 ], [ -347960.460570780269336, 6617620.749040837399662 ], [ -347819.307456454378553, 6617662.122518360614777 ], [ -347704.648380937287584, 6617700.667227767407894 ], [ -347576.519647034234367, 6617746.991842744871974 ], [ -347495.924335699935909, 6617778.110814848914742 ], [ -347413.213954040489625, 6617813.650239779613912 ], [ -347332.507323215366341, 6617849.543446985073388 ], [ -347249.351663592795376, 6617888.089036376215518 ], [ -347108.755146720912308, 6617961.113974892534316 ], [ -346998.326211854000576, 6618023.707296354696155 ], [ -346892.572695600334555, 6618086.124275761656463 ], [ -346668.486560633522458, 6618235.18430800922215 ], [ -346563.400961324688978, 6618312.632937729358673 ], [ -346463.102100119926035, 6618391.320079246535897 ], [ -346337.756353486678563, 6618490.519999877549708 ], [ -346214.636996669345535, 6618590.251609778031707 ], [ -346100.423199115437455, 6618683.264806017279625 ], [ -345873.999354841886088, 6618865.050293074920774 ], [ -345660.265932518872432, 6619036.229412451386452 ], [ -345057.693528854870237, 6619521.138403728604317 ], [ -344754.12527746160049, 6619765.018485767766833 ], [ -344457.904112460673787, 6620003.423133277334273 ], [ -343847.761983422737103, 6620493.87227304186672 ], [ -343261.998822868568823, 6620964.71687017288059 ], [ -342963.773907033377327, 6621205.455892330035567 ], [ -342867.927825460385066, 6621288.946754168719053 ], [ -342775.532648101972882, 6621371.377124723978341 ], [ -342678.907330093381461, 6621461.945353358052671 ], [ -342593.191322182596195, 6621548.622914392501116 ], [ -342455.377792580460664, 6621702.168269684538245 ], [ -342335.375381505349651, 6621847.048376123420894 ], [ -342236.968951644084882, 6621977.42496845126152 ], [ -342169.175381751032546, 6622076.668240549974144 ], [ -342107.504383851482999, 6622168.128789262846112 ], [ -342043.384357154602185, 6622271.44328502099961 ], [ -341987.168014303955715, 6622368.920996647328138 ], [ -341919.485763901728205, 6622496.829078886657953 ], [ -341864.605254940630402, 6622609.170463607646525 ], [ -341813.398289175704122, 6622718.859598712995648 ], [ -341765.5309081345913, 6622824.304084936156869 ], [ -341678.033788371074479, 6623027.943160949274898 ], [ -341560.925684056535829, 6623291.03605205193162 ], [ -341450.608068680390716, 6623545.467462789267302 ], [ -341310.679468753281981, 6623862.013798341155052 ], [ -341210.269288057752419, 6624090.982257982715964 ], [ -341164.40565785090439, 6624193.613162199966609 ], [ -341097.391324393334799, 6624336.944676699116826 ], [ -341068.559576277912129, 6624394.277983563952148 ], [ -341034.607131585944444, 6624461.698218068107963 ], [ -341010.896080047008581, 6624508.591883690096438 ], [ -340979.392664152488578, 6624565.926389968022704 ], [ -340879.316441929375287, 6624733.154321697540581 ], [ -340832.005658342153765, 6624807.655905145220459 ], [ -340778.460983270604629, 6624888.351970129646361 ], [ -340634.524881674966309, 6625084.786498384550214 ], [ -340457.972169276792556, 6625307.594957606866956 ], [ -340369.807132568501402, 6625416.258307503536344 ], [ -340204.720327722083312, 6625622.970411841757596 ], [ -340171.101841502531897, 6625665.269164135679603 ], [ -340099.078130959300324, 6625752.699075596407056 ], [ -340072.361453168909065, 6625785.618271561339498 ], [ -339905.382216978992801, 6625993.40162103716284 ], [ -339853.173375796934124, 6626056.941191694699228 ], [ -339643.224816160858609, 6626321.193208903074265 ], [ -339454.538279266213067, 6626552.885336265899241 ], [ -339266.519659316400066, 6626786.000062147155404 ], [ -338654.930376898148097, 6627549.289162973873317 ], [ -338489.064335616130847, 6627752.160411530174315 ], [ -338325.647323131619487, 6627957.869191480800509 ], [ -338228.576727159903385, 6628076.127520735375583 ], [ -338136.070230310666375, 6628197.751263490878046 ], [ -338042.45053855353035, 6628320.262009458616376 ], [ -337959.517517912550829, 6628440.295988982543349 ], [ -337874.46942694648169, 6628560.685815413482487 ], [ -337791.759045287151821, 6628686.74293917324394 ], [ -337707.267551774973981, 6628820.76928131096065 ], [ -337627.785435348632745, 6628954.797813511453569 ], [ -337475.723010924994014, 6629224.809102730825543 ], [ -337386.222140327154193, 6629396.558613525703549 ], [ -337223.584364278241992, 6629746.797111419960856 ], [ -337042.356233266706113, 6630153.361668271012604 ], [ -336870.478939481952693, 6630560.477645739912987 ], [ -336746.914304701436777, 6630870.033897801302373 ], [ -336629.917519877722953, 6631170.569653080776334 ], [ -336337.258578582142945, 6631971.284669854678214 ], [ -336299.743910184828565, 6632073.305735321715474 ], [ -336196.328103237901814, 6632353.693083293735981 ], [ -336094.136810689640697, 6632627.181830367073417 ], [ -335868.046924888563808, 6633183.221080816350877 ], [ -335738.693676586728543, 6633478.527086816728115 ], [ -335612.680013008764945, 6633758.96249205712229 ], [ -335482.43620878062211, 6634042.242105778306723 ], [ -335355.420669785467908, 6634316.318690084852278 ], [ -335192.894213227322325, 6634669.425041769631207 ], [ -335021.684836387285031, 6635038.847613805904984 ], [ -334933.519799678993877, 6635250.763710539788008 ], [ -334850.141501074831467, 6635468.709891843609512 ], [ -334781.902653218538035, 6635670.359568063169718 ], [ -334718.116584994015284, 6635878.747924831695855 ], [ -334622.381822911789641, 6636240.782130156643689 ], [ -334527.648936246754602, 6636724.405384899117053 ], [ -334462.304395151033532, 6637028.168694502674043 ], [ -334404.195620957005303, 6637249.175096250139177 ], [ -334339.964274769241456, 6637461.502817222848535 ], [ -334277.62535992503399, 6637641.755290950648487 ], [ -334207.494080725300591, 6637820.593766912817955 ], [ -334130.683632077882066, 6638001.208636165596545 ], [ -334045.746860602637753, 6638181.472979549318552 ], [ -333844.14726277597947, 6638557.435266987420619 ], [ -333652.232460648461711, 6638862.861928745172918 ], [ -333616.832862576178741, 6638911.965245757251978 ], [ -333540.690330873534549, 6639018.327230039983988 ], [ -333303.913773956301156, 6639356.212957737967372 ], [ -333137.825093692692462, 6639590.223830139264464 ], [ -333012.256708077853546, 6639770.700415349565446 ], [ -332959.93654740502825, 6639842.856704534031451 ], [ -332908.395623167743906, 6639917.141115583479404 ], [ -332873.441303058702033, 6639968.555541407316923 ], [ -332798.745924736373127, 6640071.562654683366418 ], [ -332645.125027441652492, 6640290.346257895231247 ], [ -332337.883232852211222, 6640719.065587855875492 ], [ -332249.495557162386831, 6640849.742565143853426 ], [ -332157.990935730282217, 6640976.875355703756213 ], [ -332006.151150288293138, 6641195.860449612140656 ], [ -331926.780353352660313, 6641308.990264406427741 ], [ -331861.213173275464214, 6641402.084151802584529 ], [ -331769.819871334126219, 6641530.466790587641299 ], [ -331690.337754907784984, 6641643.955881088040769 ], [ -331628.332798535877373, 6641730.137709238566458 ], [ -331564.435410820588004, 6641816.852438859641552 ], [ -331339.570039418176748, 6642138.893087030388415 ], [ -331120.381962046201807, 6642464.847997736185789 ], [ -330941.268901359813754, 6642760.843315723352134 ], [ -330810.023221714538522, 6642999.030656204558909 ], [ -330745.346597563649993, 6643143.57809981610626 ], [ -330618.776336531736888, 6643436.937438784167171 ], [ -330528.050951535173226, 6643733.14525258820504 ], [ -330464.710161273833364, 6644009.319909771904349 ], [ -330432.427508943772409, 6644274.683392690494657 ], [ -330417.510697177494876, 6644509.544340728782117 ], [ -330416.286182778712828, 6644751.153037079609931 ], [ -330422.742713244748302, 6644930.324146231636405 ], [ -330429.867160655499902, 6645024.346197050996125 ], [ -330443.893416495469864, 6645136.464468356221914 ], [ -330482.74391878239112, 6645357.33485590480268 ], [ -330523.041574449511245, 6645523.745555588975549 ], [ -330571.131594472215511, 6645688.562896404415369 ], [ -330652.283503260463476, 6645926.1256950693205 ], [ -330732.767495104053523, 6646116.145409941673279 ], [ -330814.698640327900648, 6646296.233522048220038 ], [ -330918.782364219601732, 6646499.924158658832312 ], [ -330992.030589161557145, 6646632.112865746021271 ], [ -331132.961064505856484, 6646873.606737457215786 ], [ -331348.475598681659903, 6647221.398814158514142 ], [ -331476.270374112296849, 6647434.340027909725904 ], [ -331587.367225923982915, 6647635.574563100002706 ], [ -331703.362135330564342, 6647898.57106535602361 ], [ -331770.933066242083441, 6648083.66745947021991 ], [ -331824.255102332041133, 6648276.04436768963933 ], [ -331867.001786796725355, 6648471.975310351699591 ], [ -331897.392007783288136, 6648688.498652354814112 ], [ -331925.667158444761299, 6649118.367694542743266 ], [ -331933.236883818695787, 6649453.120322230271995 ], [ -331932.123688910738565, 6649726.470369076356292 ], [ -331927.448270297492854, 6649888.354698936454952 ], [ -331911.640902604791336, 6650207.340096581727266 ], [ -331906.186247555946466, 6650303.907965037040412 ], [ -331897.948605237237643, 6650408.287750699557364 ], [ -331876.797901986457873, 6650607.820159531198442 ], [ -331855.647198735794518, 6650798.6586406044662 ], [ -331840.841706460283604, 6650907.305418633855879 ], [ -331827.149409092671704, 6651018.261541008017957 ], [ -331792.529047455987893, 6651240.178296725265682 ], [ -331769.597232352592982, 6651367.827539542689919 ], [ -331713.492208992771339, 6651658.995985474437475 ], [ -331688.00004560110392, 6651771.205126343294978 ], [ -331635.679884928278625, 6651998.823961875401437 ], [ -331491.855102823348716, 6652573.580807999707758 ], [ -331349.588793589558918, 6653156.724140619859099 ], [ -331200.977273380500264, 6653759.799122705124319 ], [ -331055.482698913721833, 6654345.868615194223821 ], [ -330909.431526992935687, 6654941.216103438287973 ], [ -330818.0382250516559, 6655313.863146631978452 ], [ -330737.776872189715505, 6655639.27711019013077 ], [ -330708.165887638693675, 6655755.981667221523821 ], [ -330566.122217386495322, 6656331.002390529960394 ], [ -330413.614514999673702, 6656949.590023212134838 ], [ -330287.266892949352041, 6657462.86493871640414 ], [ -330159.917395481839776, 6657980.081053138710558 ], [ -329996.055105034145527, 6658636.464885463006794 ], [ -329920.803129257867113, 6658906.390027916990221 ], [ -329855.013310199021362, 6659115.192740445025265 ], [ -329823.398574813792948, 6659206.534495889209211 ], [ -329741.912707553070504, 6659437.381337067112327 ], [ -329651.409961538156494, 6659667.168379071168602 ], [ -329556.788394363888074, 6659887.897971753962338 ], [ -329457.380089085490908, 6660105.078954457305372 ], [ -329053.958254450641107, 6660950.931198856793344 ], [ -328778.887792700494174, 6661528.983495437540114 ], [ -328546.675334905739874, 6662014.813646852970123 ], [ -328479.772320938995108, 6662154.719593522138894 ], [ -328308.785583080491051, 6662514.895085031166673 ], [ -328255.908824953716248, 6662626.008691562339664 ], [ -328175.87011107330909, 6662792.593038000166416 ], [ -328092.046534505963791, 6662973.581797329708934 ], [ -327965.030995510867797, 6663237.960590776056051 ], [ -327929.186119475460146, 6663314.591145693324506 ], [ -327917.38625345134642, 6663339.305097244679928 ], [ -327869.630191901000217, 6663439.05065334867686 ], [ -327823.98920067580184, 6663537.019397809170187 ], [ -327770.444525604194496, 6663649.035915494896472 ], [ -327682.613447368319612, 6663827.198680041357875 ], [ -327638.530929014203139, 6663907.213160430081189 ], [ -327573.409026900131721, 6664017.990055250003934 ], [ -327495.262744363280945, 6664138.192684882320464 ], [ -327417.116461826313753, 6664247.372343904338777 ], [ -327302.012108346098103, 6664392.651120701804757 ], [ -327204.941512374382, 6664502.723295257426798 ], [ -327112.101057052786928, 6664599.459999608807266 ], [ -327026.719007614359725, 6664682.505105201154947 ], [ -326846.82671049243072, 6664843.26290899515152 ], [ -326710.794292743084952, 6664947.116975517943501 ], [ -326588.454172361234669, 6665034.077987414784729 ], [ -326462.997106237220578, 6665113.926438383758068 ], [ -326213.418807878741063, 6665261.176851120777428 ], [ -325972.857388274453115, 6665404.695203142240644 ], [ -325868.773664382693823, 6665482.05744128767401 ], [ -325762.240911693603266, 6665567.423518858850002 ], [ -325694.558661291259341, 6665631.448661799542606 ], [ -325623.202867692802101, 6665704.54464609734714 ], [ -325542.384917376853991, 6665798.094231178984046 ], [ -325466.131066183501389, 6665900.359735741280019 ], [ -325390.990409897989593, 6666021.835031529888511 ], [ -325352.473866083542816, 6666086.930881320498884 ], [ -325315.18183666781988, 6666156.295881661586463 ], [ -325267.425775117531884, 6666273.50628338009119 ], [ -325222.3413813461666, 6666398.010826247744262 ], [ -325186.830463783175219, 6666524.651677302084863 ], [ -325159.779827520367689, 6666659.476536442525685 ], [ -325148.981836913444567, 6666736.672773135825992 ], [ -325140.410236122319475, 6666823.297067686915398 ], [ -325134.73294209188316, 6666904.408121956512332 ], [ -325134.287664128700271, 6666989.966926109977067 ], [ -325139.185721723595634, 6667078.728461103513837 ], [ -325145.085654735681601, 6667150.592213262803853 ], [ -325156.217603815020993, 6667231.172864682972431 ], [ -325169.241984237800352, 6667312.110079900361598 ], [ -325220.448950002726633, 6667584.100569314323366 ], [ -325271.767235258419532, 6667862.148596332408488 ], [ -325293.585855453915428, 6667988.278425739146769 ], [ -325304.272526570013724, 6668084.878468278795481 ], [ -325316.183712084894069, 6668357.78420221246779 ], [ -325314.179961250629276, 6668448.161772388964891 ], [ -325306.610235876694787, 6668551.527895199134946 ], [ -325282.231267392984591, 6668737.09204487875104 ], [ -325237.926110057276674, 6668945.078345602378249 ], [ -325188.611575635790359, 6669116.951257255859673 ], [ -325115.697309166251216, 6669313.737723050639033 ], [ -325010.166431894234847, 6669533.660209658555686 ], [ -324933.022024774458259, 6669662.662802845239639 ], [ -324819.476144165324513, 6669829.568488663993776 ], [ -324673.758930716954637, 6670017.474916003644466 ], [ -324315.532809344178531, 6670475.159019854851067 ], [ -324070.295971126586664, 6670788.18557040207088 ], [ -323735.892220783629455, 6671213.34429320320487 ], [ -323365.977552877564449, 6671683.197986861690879 ], [ -323223.37728517135838, 6671862.781778351403773 ], [ -323113.170989286038093, 6672013.357552194036543 ], [ -322998.066635805764236, 6672172.123665373772383 ], [ -322810.493293819192331, 6672455.667680110782385 ], [ -322563.364024258044083, 6672870.588796160183847 ], [ -322545.330266749544535, 6672904.765991730615497 ], [ -322383.917005099297967, 6673205.60268042050302 ], [ -322217.939644326572306, 6673566.443302542902529 ], [ -322051.294366609014105, 6673964.864034139551222 ], [ -321882.311379584833048, 6674447.516771103255451 ], [ -321807.949959734862205, 6674664.728704721666873 ], [ -321730.02631617966108, 6674904.914850952103734 ], [ -321652.436631096701603, 6675146.532499807886779 ], [ -321566.386664713500068, 6675409.880726314149797 ], [ -321471.431139066873584, 6675701.015924510546029 ], [ -321329.610107796266675, 6676130.704130955971777 ], [ -321261.259940449148417, 6676344.399177294224501 ], [ -321236.769652474613395, 6676429.166427057236433 ], [ -321212.613322972436436, 6676522.660737038590014 ], [ -321195.470121390360873, 6676616.868466630578041 ], [ -321178.326919808168896, 6676754.709332534112036 ], [ -321173.206223231682088, 6676862.45478097256273 ], [ -321171.981708832958248, 6676969.667364675551653 ], [ -321184.89476976491278, 6677141.709101624786854 ], [ -321213.503878898802213, 6677299.328158230520785 ], [ -321237.326249928562902, 6677406.368369762785733 ], [ -321282.521963190636598, 6677549.031463892199099 ], [ -321334.619484881928656, 6677678.338742464780807 ], [ -321413.767642835970037, 6677848.258029847405851 ], [ -321486.347950833092909, 6678000.903421693481505 ], [ -321564.494233370060101, 6678164.595172931440175 ], [ -321634.625512569735292, 6678309.587123553268611 ], [ -321728.801801780879032, 6678507.841952747665346 ], [ -321794.702940330549609, 6678650.168017661198974 ], [ -321849.917407764005475, 6678780.027128635905683 ], [ -321895.892357461620122, 6678905.078593777492642 ], [ -321934.854179239191581, 6679033.160354987718165 ], [ -321959.121828232193366, 6679128.109604740515351 ], [ -321975.151834906369913, 6679207.205131854861975 ], [ -321997.638372046640143, 6679337.963831309229136 ], [ -322010.440113487886265, 6679445.387053621932864 ], [ -322024.243730346264783, 6679583.097495888359845 ], [ -322054.856590314419009, 6679897.898389686830342 ], [ -322110.071057747874875, 6680502.414255639538169 ], [ -322178.866503058059607, 6681245.42607100866735 ], [ -322235.862082344247028, 6681856.635134693235159 ], [ -322274.044667686335742, 6682363.278364983387291 ], [ -322282.727587968227454, 6682553.077184960246086 ], [ -322293.191620102734305, 6682747.33594355173409 ], [ -322293.191620102734305, 6683032.138329342007637 ], [ -322283.618143894593231, 6683504.632778512313962 ], [ -322274.044667686335742, 6683791.42225793376565 ], [ -322255.78827119624475, 6683960.39927039667964 ], [ -322241.650695865508169, 6684119.754213353618979 ], [ -322234.748887436289806, 6684189.272444502450526 ], [ -322226.845203589997254, 6684265.386673689819872 ], [ -322218.050963817338925, 6684342.571148112416267 ], [ -322206.919014737999532, 6684440.256009197793901 ], [ -322201.353040198329836, 6684489.455396298319101 ], [ -322182.874004726647399, 6684623.150880142115057 ], [ -322166.955317543179262, 6684732.782810235396028 ], [ -322153.485659157217015, 6684822.093811919912696 ], [ -322140.795237206795719, 6684903.918521163985133 ], [ -322117.640783121809363, 6685033.698826469480991 ], [ -322093.929731582815293, 6685160.272264837287366 ], [ -322082.909101994300727, 6685216.072164298966527 ], [ -322061.869718234345783, 6685317.867851368151605 ], [ -322045.728392069344409, 6685394.883995512500405 ], [ -322001.534554224403109, 6685590.993197825737298 ], [ -321978.491419630183373, 6685689.049565223045647 ], [ -321956.004882489971351, 6685781.045336875133216 ], [ -321908.582779412041418, 6685963.791949957609177 ], [ -321884.092491437506396, 6686058.108631405979395 ], [ -321863.164427168376278, 6686134.061987219378352 ], [ -321834.110040071303956, 6686237.117200590670109 ], [ -321804.165097047924064, 6686344.452906020916998 ], [ -321788.246409864514135, 6686397.764686160720885 ], [ -321781.789879398478661, 6686419.874021510593593 ], [ -321765.537233742652461, 6686470.690059524960816 ], [ -321743.16201609314885, 6686540.406612228602171 ], [ -321707.428459548566025, 6686648.994449029676616 ], [ -321670.693027586792596, 6686756.335569147020578 ], [ -321623.382243999629281, 6686890.424798024818301 ], [ -321617.927588950784411, 6686902.193372698500752 ], [ -321560.375412210647482, 6687055.899648014456034 ], [ -321522.638104831741657, 6687150.763897718861699 ], [ -321484.344199998828117, 6687240.636308934539557 ], [ -321443.823905350116547, 6687331.222994367592037 ], [ -321403.526249682938214, 6687416.460990212857723 ], [ -321362.338038089394104, 6687502.234850870445371 ], [ -321313.691420612798538, 6687597.639267981052399 ], [ -321266.157998044043779, 6687688.764901750721037 ], [ -321217.066102604207117, 6687774.898285158909857 ], [ -321179.885392679250799, 6687839.454335990361869 ], [ -321145.153711551742163, 6687898.304219369776547 ], [ -321061.44145447522169, 6688035.087253824807703 ], [ -320971.272666932665743, 6688170.267523827031255 ], [ -320923.182646909961477, 6688239.998590983450413 ], [ -320876.873738739988767, 6688304.37997719924897 ], [ -320815.53669931285549, 6688388.023035041987896 ], [ -320743.512988769623917, 6688481.654340264387429 ], [ -320598.686331247561611, 6688657.32740094140172 ], [ -320584.54875591682503, 6688674.805739636532962 ], [ -320490.149827724148054, 6688779.319851918146014 ], [ -320441.948488210677169, 6688832.112471885979176 ], [ -320381.613324200676288, 6688896.676883361302316 ], [ -320314.821629724756349, 6688965.165656990371644 ], [ -320246.805420849996153, 6689032.584854743443429 ], [ -320178.343934012169484, 6689096.615772371180356 ], [ -320068.916874562390149, 6689197.032958252355456 ], [ -319957.597383769112639, 6689295.132645265199244 ], [ -319843.940183669154067, 6689391.449848566204309 ], [ -319761.675079972948879, 6689462.618289983831346 ], [ -319611.727725874399766, 6689591.400856456719339 ], [ -319445.082448156899773, 6689734.63371505215764 ], [ -319371.500264742469881, 6689800.810641778632998 ], [ -319283.780505997419823, 6689884.290656921453774 ], [ -319150.531075517879799, 6690017.004233338870108 ], [ -319023.515536522725597, 6690152.217327292077243 ], [ -318930.007164256414399, 6690256.750357213430107 ], [ -318823.474411567265633, 6690383.583185916766524 ], [ -318719.390687675506342, 6690515.948098908178508 ], [ -318619.982382397109177, 6690651.704639622010291 ], [ -318521.019355081894901, 6690792.101755152456462 ], [ -318473.374613022431731, 6690863.282409722916782 ], [ -318429.180775177490432, 6690933.9284851802513 ], [ -318359.828732413239777, 6691045.250814697705209 ], [ -318295.9313446978922, 6691155.504233724437654 ], [ -318213.888879983278457, 6691306.614494435489178 ], [ -318137.078431335859932, 6691459.333255657926202 ], [ -318093.218551963334903, 6691551.215662873350084 ], [ -318052.475618333090097, 6691641.314950143918395 ], [ -318012.289282156620175, 6691732.128901635296643 ], [ -317975.665169685671572, 6691821.159669960848987 ], [ -317910.543267571600154, 6691989.589271041564643 ], [ -317852.211854395922273, 6692158.914481723681092 ], [ -317830.059275728126522, 6692226.181636323221028 ], [ -317809.242530949704815, 6692293.627775030210614 ], [ -317770.725987135258038, 6692427.62956156488508 ], [ -317734.76979160902556, 6692563.239468351006508 ], [ -317704.156931640871335, 6692697.245681904256344 ], [ -317661.521566667011939, 6692906.913613163866103 ], [ -317642.708572722971439, 6693013.801720960065722 ], [ -317626.233288085553795, 6693117.479169741272926 ], [ -317614.099463589082006, 6693209.55869678966701 ], [ -317603.858070436108392, 6693296.99951951764524 ], [ -317583.263964639394544, 6693509.538160328753293 ], [ -317566.7886800019769, 6693712.266992661170661 ], [ -317558.217079210910015, 6693814.168686274439096 ], [ -317549.868117401376367, 6693910.896164610050619 ], [ -317534.506027671915945, 6694105.2469074530527 ], [ -317524.932551463658456, 6694203.227136148139834 ], [ -317514.691158310684841, 6694296.032809267751873 ], [ -317498.661151636508293, 6694420.072808972559869 ], [ -317480.850033109541982, 6694539.295765676535666 ], [ -317458.363495969271753, 6694664.767315475270152 ], [ -317434.095846976386383, 6694785.600204896181822 ], [ -317410.718753909750376, 6694893.940816247835755 ], [ -317385.894507462857291, 6694999.962510618381202 ], [ -317345.040254341787659, 6695149.894530999474227 ], [ -317321.774480765976477, 6695230.394883411005139 ], [ -317301.736972423153929, 6695298.401343245990574 ], [ -317266.448693841695786, 6695407.284257095307112 ], [ -317230.826456787879579, 6695509.028620971366763 ], [ -317199.990957838133909, 6695594.530567499808967 ], [ -317170.71393175952835, 6695669.680199797265232 ], [ -317153.570730177336372, 6695714.306199736893177 ], [ -317116.390020252380054, 6695804.986983519978821 ], [ -317099.246818670246284, 6695848.899693769402802 ], [ -317075.869725603668485, 6695899.417453594505787 ], [ -317028.781580998038407, 6696004.55965987406671 ], [ -316981.582116901758127, 6696105.954446070827544 ], [ -316852.340188090747688, 6696390.152182206511497 ], [ -316779.203282639558893, 6696552.070771503262222 ], [ -316705.843738206778653, 6696712.564363627694547 ], [ -316612.11272695887601, 6696920.014596686698496 ], [ -316573.150905181188136, 6697006.423995235003531 ], [ -316544.875754519714974, 6697068.018030175939202 ], [ -316472.963363467250019, 6697230.664224388077855 ], [ -316400.828333433251828, 6697378.31621197797358 ], [ -316298.637040884990711, 6697588.818648138083518 ], [ -316242.309378543577623, 6697699.160517318174243 ], [ -316192.883524631382897, 6697791.648864889517426 ], [ -316079.78292198543204, 6697991.270146548748016 ], [ -316023.009981680894271, 6698082.869024370796978 ], [ -315971.80301591596799, 6698165.005345014855266 ], [ -315857.700537852826528, 6698334.101635091938078 ], [ -315531.868388300936203, 6698760.161261951550841 ], [ -315383.924785036651883, 6698936.412886973470449 ], [ -315183.549701608775649, 6699133.919232791289687 ], [ -315003.546084996021818, 6699304.642857166007161 ], [ -314861.836373216181528, 6699425.365903102792799 ], [ -314827.327331070322543, 6699453.582493937574327 ], [ -314708.994712357001845, 6699547.876619544811547 ], [ -314533.221236394485459, 6699679.854508507065475 ], [ -314394.071872902917676, 6699775.758590254932642 ], [ -314225.311524860328063, 6699883.629705659113824 ], [ -313919.294244669552427, 6700073.479189853183925 ], [ -313556.170065701939166, 6700297.446539472788572 ], [ -313316.721841005550232, 6700451.405333949252963 ], [ -313122.691968552884646, 6700588.756177704781294 ], [ -312929.441332535818219, 6700722.001209188252687 ], [ -312837.046155177347828, 6700778.97930668015033 ], [ -312742.201949021487962, 6700833.099937179125845 ], [ -312647.469062356394716, 6700882.934102655388415 ], [ -312500.416015018476173, 6700952.059416961856186 ], [ -312362.491165925632231, 6701007.78877910040319 ], [ -312217.887147385219578, 6701057.266769104637206 ], [ -312109.573282843339257, 6701088.346959643997252 ], [ -311891.943678342504427, 6701153.187048791907728 ], [ -311786.301481579663232, 6701194.806441011838615 ], [ -311725.298400624946225, 6701226.065780847333372 ], [ -311611.084603071038146, 6701282.868773620575666 ], [ -311504.774489363480825, 6701348.067664941772819 ], [ -311391.228608754288871, 6701418.268697800114751 ], [ -311254.08299609698588, 6701494.365156404674053 ], [ -311149.331355260568671, 6701552.420443863607943 ], [ -311013.076298529573251, 6701613.870182966813445 ], [ -310873.926935038005468, 6701670.854511783458292 ], [ -310777.858214483363554, 6701707.474745159968734 ], [ -310714.962702185206581, 6701728.732419480569661 ], [ -310633.365515433717519, 6701754.27742915134877 ], [ -310549.987216829613317, 6701776.785685801878572 ], [ -310468.278710587357637, 6701794.470788181759417 ], [ -310411.060492319520563, 6701806.082239892333746 ], [ -310269.128141558147036, 6701833.235237658955157 ], [ -310155.693580439838115, 6701849.31271315831691 ], [ -310055.50603872584179, 6701859.852408743463457 ], [ -309928.37918023992097, 6701870.034839447587729 ], [ -309836.317961353925057, 6701873.964903821237385 ], [ -309635.274960981216282, 6701876.644494253210723 ], [ -309530.078042181557976, 6701882.182317269966006 ], [ -309445.475229178729933, 6701888.791981920599937 ], [ -309348.181994225422386, 6701902.904527078382671 ], [ -309261.575430388213135, 6701918.982139929197729 ], [ -309160.831291220267303, 6701942.384055280126631 ], [ -309038.713809820066672, 6701979.898716185241938 ], [ -308931.735779167735018, 6702020.62911485042423 ], [ -308843.68206195026869, 6702059.930569564923644 ], [ -308738.039865187427495, 6702115.667502849362791 ], [ -308657.555873343895655, 6702163.008466529659927 ], [ -308570.281392561970279, 6702220.711220307275653 ], [ -308486.235177013091743, 6702285.203016526065767 ], [ -308287.975163910188712, 6702447.238671952858567 ], [ -308198.140334840049036, 6702516.019940103404224 ], [ -308165.523724037630018, 6702540.316838425584137 ], [ -308097.50751516292803, 6702584.980443305335939 ], [ -308058.100415422115475, 6702609.456202536821365 ], [ -307968.71086431510048, 6702660.015850209631026 ], [ -307868.857281073578633, 6702709.861180746927857 ], [ -307800.28447474486893, 6702740.411695221439004 ], [ -307726.702291330555454, 6702769.175734513439238 ], [ -307673.825533203780651, 6702788.828242060728371 ], [ -307625.401554708660115, 6702804.907601648941636 ], [ -307558.05326277873246, 6702826.346797082573175 ], [ -307478.905104824749287, 6702849.03667364642024 ], [ -307349.440537032147404, 6702890.128736783750355 ], [ -307271.962171440070961, 6702914.069425555877388 ], [ -307193.815888903161976, 6702942.476751922629774 ], [ -307135.039197764301207, 6702965.524278103373945 ], [ -307091.179318391776178, 6702984.105276870541275 ], [ -307034.962975541129708, 6703007.867577376775444 ], [ -306985.759760610526428, 6703032.701935363002121 ], [ -306900.266391681274399, 6703076.474908761680126 ], [ -306834.36525313166203, 6703112.386788934469223 ], [ -306786.052594127424527, 6703139.008135513402522 ], [ -306726.385347062256187, 6703174.741623257286847 ], [ -306631.31850192474667, 6703237.096934398636222 ], [ -306529.238528867252171, 6703309.994292388670146 ], [ -306469.348642820550594, 6703354.662113156169653 ], [ -306433.837725257501006, 6703383.42831926420331 ], [ -306392.87215264554834, 6703416.66145390085876 ], [ -306294.354403293458745, 6703503.139707860536873 ], [ -306244.705910399730783, 6703549.774022967554629 ], [ -306081.956814859935548, 6703703.972910180687904 ], [ -305980.433439256506972, 6703801.711142353713512 ], [ -305669.406781980069354, 6704100.829574379138649 ], [ -305398.677780370868277, 6704359.038001127541065 ], [ -305125.945027927285992, 6704622.258191020227969 ], [ -304670.759630073618609, 6705057.224500549957156 ], [ -304642.595798902970273, 6705083.673487992025912 ], [ -304200.880059435206931, 6705506.154080896638334 ], [ -304040.246034220501315, 6705654.134694048203528 ], [ -303994.382404013653286, 6705692.917497024871409 ], [ -303960.652598303335253, 6705720.083441243506968 ], [ -303918.351191801892128, 6705751.717582469806075 ], [ -303826.735250879020896, 6705814.271330417133868 ], [ -303713.189370269828942, 6705882.187371629290283 ], [ -303541.423395975842141, 6705964.759741724468768 ], [ -303469.844963395793457, 6705993.177698903717101 ], [ -303389.138332570670173, 6706020.880834271200001 ], [ -303333.47858717397321, 6706039.647527845576406 ], [ -303259.451125796476845, 6706060.55903728865087 ], [ -303250.87952500540996, 6706062.882541647180915 ], [ -303189.431166087451857, 6706076.466118849813938 ], [ -303143.010938426770736, 6706084.330305472016335 ], [ -303080.560704091680236, 6706094.160549416206777 ], [ -303007.535118131316267, 6706102.918413096107543 ], [ -302923.043624619254842, 6706108.995303625240922 ], [ -302825.193792211881373, 6706114.536001882515848 ], [ -302740.924937681469601, 6706114.893466414883733 ], [ -302569.492921859782655, 6706112.748679452575743 ], [ -302436.354810871009249, 6706109.352767915464938 ], [ -302316.24108030507341, 6706113.642340619117022 ], [ -302201.470685297215823, 6706121.327830689027905 ], [ -302090.039875013113488, 6706136.162634333595634 ], [ -302020.242554285796359, 6706147.959003486670554 ], [ -302003.099352703604382, 6706151.3549311067909 ], [ -301962.356419073301367, 6706159.397923213429749 ], [ -301841.574771562532987, 6706188.888962154276669 ], [ -301750.181469621311408, 6706217.128966104239225 ], [ -301728.696807898231782, 6706224.814553731121123 ], [ -301688.84443019417813, 6706238.755870714783669 ], [ -301643.426077950571198, 6706254.842035318724811 ], [ -301579.751329216756858, 6706279.150077609345317 ], [ -301513.293593213194981, 6706308.820286277681589 ], [ -301432.141684424888808, 6706347.963678581640124 ], [ -301369.134852635907009, 6706381.745113442651927 ], [ -301244.123064475075807, 6706454.134373808279634 ], [ -301155.29011082201032, 6706516.693511663936079 ], [ -301045.529092899872921, 6706599.272308725863695 ], [ -301012.912482097395696, 6706627.692477819509804 ], [ -300952.354679105919786, 6706680.421984813176095 ], [ -300879.551732127089053, 6706745.485304179601371 ], [ -300822.222194368543569, 6706804.650476719252765 ], [ -300686.189776619197801, 6706967.312227621674538 ], [ -300566.18736554402858, 6707129.977224316447973 ], [ -300536.24242252059048, 6707170.733358373865485 ], [ -300361.025544012023602, 6707438.692138192243874 ], [ -299086.640013410593383, 6709278.174663632176816 ], [ -298985.673235261114314, 6709421.57484311144799 ], [ -298908.306189159804489, 6709517.593580547720194 ], [ -298871.682076688797679, 6709563.01065861992538 ], [ -298803.665867814153899, 6709640.077224508859217 ], [ -298597.502170865016524, 6709834.266744994558394 ], [ -298471.822465759410989, 6709941.73457342106849 ], [ -298342.135258985217661, 6710047.773270610719919 ], [ -297921.013625314284582, 6710390.396771885454655 ], [ -297777.522801681712735, 6710507.17101628985256 ], [ -297254.321194953401573, 6710991.095597054809332 ], [ -297207.567008820129558, 6711041.170734543353319 ], [ -297165.376921809511259, 6711091.603862590156496 ], [ -297123.186834798834752, 6711157.775461448356509 ], [ -297095.356962100544479, 6711205.347807761281729 ], [ -297067.527089402254205, 6711263.114601634442806 ], [ -297049.159373421338387, 6711310.687562886625528 ], [ -297031.570893876021728, 6711367.024323543533683 ], [ -297012.757899931923021, 6711441.425213792361319 ], [ -296998.175046638061758, 6711507.599653288722038 ], [ -296968.11878412385704, 6711641.202118791639805 ], [ -296944.741691057221033, 6711718.824905288405716 ], [ -296914.685428543074522, 6711796.269574293866754 ], [ -296883.293332139379345, 6711866.024063224904239 ], [ -296855.463459441030864, 6711920.93378606531769 ], [ -296798.022602191718761, 6712013.225880199111998 ], [ -296657.426085319777485, 6712213.553402297198772 ], [ -296620.356694885645993, 6712266.319060142152011 ], [ -296547.442428416048642, 6712390.632723443210125 ], [ -296479.982816995354369, 6712530.867966813966632 ], [ -296416.419387752423063, 6712703.30338560976088 ], [ -296292.966072462615557, 6713198.80721094738692 ], [ -296123.537807475251611, 6713894.173320753499866 ], [ -296064.983755318040494, 6714082.202495507895947 ], [ -295978.93378893478075, 6714276.318993267603219 ], [ -295913.366608857584652, 6714391.001973121427 ], [ -295764.97772763017565, 6714596.755515150725842 ], [ -295433.913562010915484, 6714952.8108772309497 ], [ -295243.445913263596594, 6715181.302841888740659 ], [ -295155.058237573772203, 6715299.577237382531166 ], [ -295069.008271190628875, 6715423.758253913372755 ], [ -294904.478063798160292, 6715673.736444125883281 ], [ -294797.38871365506202, 6715821.186016977764666 ], [ -294686.291861843317747, 6715964.164547097869217 ], [ -294609.704052177548874, 6716057.576156135648489 ], [ -294528.66346288000932, 6716149.199311321601272 ], [ -294361.238948726968374, 6716327.080019908957183 ], [ -294183.239082948537543, 6716501.385407735593617 ], [ -294084.943972578039393, 6716612.699424139223993 ], [ -294005.907134114822838, 6716715.066711127758026 ], [ -293938.002244730887469, 6716812.424205581657588 ], [ -293855.959780016273726, 6716948.798240751028061 ], [ -293796.849130405054893, 6717068.172137642279267 ], [ -293748.981749363942072, 6717185.937006517313421 ], [ -293711.578400457394309, 6717280.436491245403886 ], [ -293693.878601421311032, 6717337.888418406248093 ], [ -293678.627831182617228, 6717393.729932217858732 ], [ -293654.582821171265095, 6717484.473208677954972 ], [ -293630.649130650737789, 6717609.045506878755987 ], [ -293610.722941798740067, 6717766.553438846953213 ], [ -293601.372104572074022, 6717922.274502148851752 ], [ -293606.047523185377941, 6718073.881661916151643 ], [ -293617.73606971866684, 6718199.71595773845911 ], [ -293638.775453478621785, 6718334.323217187076807 ], [ -293657.922405895020347, 6718424.360963529907167 ], [ -293664.601575342647266, 6718450.853372649289668 ], [ -293725.270697825006209, 6718646.327054902911186 ], [ -293752.877931541705038, 6718730.460944735445082 ], [ -293771.356967013445683, 6718776.108418866991997 ], [ -293807.647121012036223, 6718857.021433061920106 ], [ -293872.43506465369137, 6718976.602315296418965 ], [ -293935.664535424264614, 6719078.999316478148103 ], [ -294018.152278102061246, 6719199.657575053162873 ], [ -294112.439886803971604, 6719314.946958024054766 ], [ -294394.634795964928344, 6719626.451279131695628 ], [ -294672.710883966530673, 6719951.395207609981298 ], [ -294821.322404175589327, 6720134.551135453395545 ], [ -295003.441091113374569, 6720370.529361411929131 ], [ -295229.085698951326776, 6720678.493021790869534 ], [ -295499.480742088169791, 6721073.13324836269021 ], [ -295689.948390835488681, 6721376.467729043215513 ], [ -295779.783219905686565, 6721524.557793497107923 ], [ -295854.923876191081945, 6721678.022769667208195 ], [ -295910.806260569312144, 6721813.045688995160162 ], [ -295954.33218146947911, 6721961.322774025611579 ], [ -295981.605456713819876, 6722086.142654992640018 ], [ -296002.199562510591932, 6722237.469180068932474 ], [ -296006.874981123954058, 6722327.729180209338665 ], [ -296007.431578577903565, 6722452.375587260350585 ], [ -296007.988176031853072, 6722478.522920519113541 ], [ -296009.991926866117865, 6722490.16388357244432 ], [ -296013.220192099164706, 6722501.267586917616427 ], [ -296019.008805620425846, 6722515.057691186666489 ], [ -296026.021933540410828, 6722527.773262568749487 ], [ -296035.038812294602394, 6722541.205225740559399 ], [ -296054.297084201825783, 6722556.069957482628524 ], [ -296095.485295795369893, 6722571.651090967468917 ], [ -296563.806393562699668, 6722630.752213170751929 ], [ -296703.957632471399847, 6722639.169680626131594 ], [ -296791.232113253325224, 6722651.348159585148096 ], [ -296921.253278499818407, 6722655.825546136125922 ], [ -297421.411750634026248, 6722673.735116954892874 ], [ -297615.664262068283278, 6722683.764493821188807 ], [ -297934.928561663371511, 6722711.166247178800404 ], [ -298155.563792415661737, 6722738.388995425775647 ], [ -298301.614964336506091, 6722760.955289945006371 ], [ -298551.304582185810432, 6722808.774549311958253 ], [ -298697.133115124946926, 6722837.788618859834969 ], [ -298784.741554379288573, 6722858.922388921491802 ], [ -299076.732578730036039, 6722933.786524224095047 ], [ -299352.136998952599242, 6723016.173688822425902 ], [ -299542.38200871826848, 6723079.039238234050572 ], [ -299784.50190119369654, 6723169.845888797193766 ], [ -300092.522932218620554, 6723294.505188793875277 ], [ -300325.625945939798839, 6723391.224926152266562 ], [ -300560.844029985950328, 6723489.378723192960024 ], [ -300797.843225884833373, 6723587.354587588459253 ], [ -301083.266400278778747, 6723704.318178067915142 ], [ -301347.76151040365221, 6723813.402122148312628 ], [ -301558.711945456801914, 6723907.799424195662141 ], [ -301821.871221692184918, 6724017.960847555659711 ], [ -302113.416968079749495, 6724138.154930239543319 ], [ -302405.296672939730342, 6724258.529918254353106 ], [ -302563.704308338579722, 6724322.479854597710073 ], [ -302683.261441450507846, 6724371.203952798619866 ], [ -302837.550255689944606, 6724436.766986319795251 ], [ -302982.710871684423182, 6724497.135601591318846 ], [ -303111.841481004608795, 6724549.443487798795104 ], [ -303375.446035203058273, 6724654.239407991059124 ], [ -303461.607321077084634, 6724686.126297551207244 ], [ -303537.415894307254348, 6724710.668539183214307 ], [ -303650.071218990080524, 6724746.855045028962195 ], [ -303775.083007150911726, 6724782.683427111245692 ], [ -303914.56632911489578, 6724818.153680702671409 ], [ -304056.609999367094133, 6724850.757787498645484 ], [ -304217.132705091033131, 6724880.316568603739142 ], [ -304323.88809676177334, 6724899.305902787484229 ], [ -304416.505913101776969, 6724910.233747255057096 ], [ -304473.278853406314738, 6724916.682973825372756 ], [ -304643.486354829219636, 6724932.985208213329315 ], [ -304736.104171169281472, 6724938.359578353352845 ], [ -304887.387359157321043, 6724946.958577957935631 ], [ -305004.272824490268249, 6724948.750037351623178 ], [ -305172.587894569674972, 6724946.958577957935631 ], [ -305242.385215297050308, 6724944.98797307908535 ], [ -305371.293185635644477, 6724937.284704041667283 ], [ -305517.233038065664005, 6724925.461095977574587 ], [ -305674.750117538147606, 6724908.621441411785781 ], [ -305852.972622298169881, 6724881.212290920317173 ], [ -306025.963110990938731, 6724850.041212321259081 ], [ -306356.915957119315863, 6724786.803701159544289 ], [ -306631.541140906338114, 6724739.331104824319482 ], [ -306794.73551440925803, 6724710.668539183214307 ], [ -306857.297068235115148, 6724700.994946055114269 ], [ -307091.624596354900859, 6724665.704342667944729 ], [ -307344.431159946427215, 6724634.713228290900588 ], [ -307563.619237318402156, 6724610.350354156456888 ], [ -307776.796062187524512, 6724591.899108291603625 ], [ -307996.206778541032691, 6724586.883242861367762 ], [ -308073.128546679217834, 6724586.345828891731799 ], [ -308141.590033517102711, 6724585.987552931532264 ], [ -308460.965652602957562, 6724597.094115035608411 ], [ -308821.19552480999846, 6724639.012566590681672 ], [ -309286.288357344339602, 6724694.904171096161008 ], [ -309446.143146123504266, 6724710.847679905593395 ], [ -309599.541404436575249, 6724720.700425677932799 ], [ -309807.152254766027909, 6724734.136007315479219 ], [ -309950.754397889366373, 6724742.913932625204325 ], [ -310090.349039344117045, 6724751.333584167063236 ], [ -310221.706038480158895, 6724760.111528019420803 ], [ -310293.284471060265787, 6724765.844067892059684 ], [ -310379.334437443467323, 6724776.413448862731457 ], [ -310467.610793642525095, 6724791.998832281678915 ], [ -310568.466252301237546, 6724813.495961821638048 ], [ -310650.620036506676115, 6724834.993148128502071 ], [ -310728.766319043585099, 6724858.640118632465601 ], [ -310804.463572782988194, 6724885.153470277786255 ], [ -310930.811194833368063, 6724941.584202140569687 ], [ -311015.859285799378995, 6724988.52053742762655 ], [ -311104.024322507670149, 6725041.189877112396061 ], [ -311181.280049118213356, 6725095.292750919237733 ], [ -311239.277503821533173, 6725142.050822251476347 ], [ -311298.722111905168276, 6725190.421523501165211 ], [ -311364.734569945547264, 6725252.408101565204561 ], [ -311531.268528172280639, 6725409.347328623756766 ], [ -311629.674958033545408, 6725495.701024819165468 ], [ -311707.932560061221011, 6725556.256652816198766 ], [ -311780.290229076810647, 6725607.138061301782727 ], [ -311853.649773509649094, 6725652.286619648337364 ], [ -311921.554662893526256, 6725690.268934109248221 ], [ -311976.769130326982122, 6725716.247505967505276 ], [ -312058.032358606054913, 6725752.975973169319332 ], [ -312097.662097328458913, 6725769.996538554318249 ], [ -312115.139257382950746, 6725777.163103047758341 ], [ -312148.980382584151812, 6725789.525441628880799 ], [ -312173.693309540220071, 6725797.587846470065415 ], [ -312231.468125261948444, 6725815.504330262541771 ], [ -312304.605030713195447, 6725833.779184356331825 ], [ -312399.226597887463868, 6725856.891558585688472 ], [ -312492.846289644541685, 6725870.14984939340502 ], [ -312556.409718887531199, 6725876.420670133084059 ], [ -312645.13135304977186, 6725881.795663186348975 ], [ -312751.441466757329181, 6725882.512329194694757 ], [ -312840.163100919569843, 6725877.674834860488772 ], [ -312991.55760839843424, 6725867.283190093003213 ], [ -313316.610521514783613, 6725845.245780423283577 ], [ -313470.342738300270867, 6725830.733372491784394 ], [ -313629.974888097844087, 6725809.2335564494133 ], [ -313706.562697763671167, 6725797.946175757795572 ], [ -313923.190426847315393, 6725758.530048488639295 ], [ -314538.007974498614203, 6725630.428952988237143 ], [ -314686.508175216848031, 6725610.183789502829313 ], [ -314834.897056444257032, 6725596.746761893853545 ], [ -314968.035167433030438, 6725592.626077869907022 ], [ -315103.177029256068636, 6725594.775999707169831 ], [ -315225.62846912862733, 6725601.225768632255495 ], [ -315316.353854125132784, 6725607.496382207609713 ], [ -315409.52826791908592, 6725618.783498815260828 ], [ -315438.471335525391623, 6725622.008392148651183 ], [ -315552.01721613452537, 6725640.641134203411639 ], [ -315670.572473829321098, 6725664.469606867991388 ], [ -315804.489821253693663, 6725698.510403099469841 ], [ -315955.995648223266471, 6725745.271939486265182 ], [ -316216.371937188785523, 6725852.054079480469227 ], [ -316758.386537861195393, 6726148.578944897279143 ], [ -316832.859277201874647, 6726191.401253121905029 ], [ -317758.258204166428186, 6726701.882017764262855 ], [ -318089.656328257988207, 6726862.612142836675048 ], [ -318769.150500060117338, 6727156.127517986111343 ], [ -318835.830875045270659, 6727181.393988293595612 ], [ -319893.922635035356507, 6727556.637183972634375 ], [ -320350.332547287805937, 6727734.588070635683835 ], [ -320369.590819195029326, 6727742.652402369305491 ], [ -320602.248554952908307, 6727839.962635222822428 ], [ -320680.172198508225847, 6727872.5788483787328 ], [ -320989.863021895114798, 6728003.045008135028183 ], [ -321252.79965914884815, 6728092.652098591439426 ], [ -321426.235425804741681, 6728131.541882855817676 ], [ -321651.76871415192727, 6728165.951432182453573 ], [ -321696.296510469226632, 6728176.166795143857598 ], [ -321854.258867904893123, 6728212.727146599441767 ], [ -321992.74031445174478, 6728252.872035417705774 ], [ -322131.333080489363056, 6728299.469029691070318 ], [ -322294.750092973874416, 6728363.629943005740643 ], [ -322502.138304321735632, 6728463.994397304020822 ], [ -322628.263287390524056, 6728515.610884329304099 ], [ -322740.028056146984454, 6728560.596353551372886 ], [ -322877.618946767470334, 6728591.064740882255137 ], [ -323034.356789804412983, 6728611.138093690387905 ], [ -323175.955182093428448, 6728615.797986244782805 ], [ -323333.360942075145431, 6728599.667600309476256 ], [ -323508.243862111354247, 6728560.596353551372886 ], [ -323713.183044661767781, 6728505.932768073864281 ], [ -323724.871591195056681, 6728502.885956080630422 ], [ -323803.685790676681791, 6728486.755793939344585 ], [ -324112.040780174022075, 6728423.490022144280374 ], [ -324380.543391967425123, 6728392.30537507776171 ], [ -324670.530665483907796, 6728382.985848571173847 ], [ -324831.498649170971476, 6728388.362497176975012 ], [ -325312.064890925539657, 6728430.838146031834185 ], [ -325474.257389011385385, 6728445.355190777219832 ], [ -325619.306685515039135, 6728458.259252288378775 ], [ -325724.948882277822122, 6728461.843717449344695 ], [ -325785.951963232539129, 6728460.051484671421349 ], [ -325848.958795021520928, 6728453.061780605465174 ], [ -325906.39965227083303, 6728445.175967844203115 ], [ -325960.166966324031819, 6728434.064153735525906 ], [ -326012.932404960040003, 6728419.18868441041559 ], [ -326093.08243833121378, 6728393.201483958400786 ], [ -326198.390676621580496, 6728351.622135837562382 ], [ -326294.793355648580473, 6728310.759879994206131 ], [ -326789.942450697126333, 6728094.802680886350572 ], [ -326878.664084859308787, 6728054.837786096148193 ], [ -327289.878283849626314, 6727874.729372523725033 ], [ -327318.598712474282365, 6727857.166775323450565 ], [ -328003.213580852956511, 6727408.974950840696692 ], [ -328073.901457506639417, 6727365.967037195339799 ], [ -328151.491142589598894, 6727331.202473093755543 ], [ -328190.45296436722856, 6727316.329019374214113 ], [ -328254.906949536583852, 6727297.513243369758129 ], [ -328329.936286331154406, 6727281.206272684969008 ], [ -328399.177009604638442, 6727270.275244689546525 ], [ -328591.203131223039236, 6727245.904481031931937 ], [ -328659.219340097683016, 6727234.256715351715684 ], [ -328720.222421052400023, 6727218.129067312926054 ], [ -328818.851489895314444, 6727184.440305615775287 ], [ -328944.753833982453216, 6727134.086618578992784 ], [ -329018.224697906000074, 6727104.698845552280545 ], [ -329075.44291617377894, 6727083.912436014972627 ], [ -329154.034476673754398, 6727060.259000079706311 ], [ -329210.696097487583756, 6727049.507461016997695 ], [ -329266.689801356580574, 6727043.414928517304361 ], [ -329321.904268790094648, 6727043.056544395163655 ], [ -329376.339499788009562, 6727046.282002068124712 ], [ -329444.912306116661057, 6727054.704036458395422 ], [ -329517.603933604666963, 6727071.72732407040894 ], [ -329568.699579878768418, 6727087.496295941062272 ], [ -329612.670778742118273, 6727103.265298360958695 ], [ -329699.611301051685587, 6727147.167795578949153 ], [ -329782.766960674198344, 6727205.226971887052059 ], [ -329836.756913708930369, 6727255.939492526464164 ], [ -329884.958253222459462, 6727306.831527003087103 ], [ -329939.393484220374376, 6727378.510988533496857 ], [ -329995.387188089371193, 6727473.12884436827153 ], [ -330061.733604602166452, 6727585.488976852037013 ], [ -330139.100650703534484, 6727705.198129278607666 ], [ -330207.784776522952598, 6727794.264314675703645 ], [ -330258.657783815462608, 6727853.582576473243535 ], [ -330293.946062396920752, 6727891.575164629146457 ], [ -330328.121146070479881, 6727925.087641965597868 ], [ -330373.094220350962132, 6727966.844023391604424 ], [ -330406.267428607388865, 6727994.801205371506512 ], [ -330490.091005174675956, 6728062.006362645886838 ], [ -330567.792009748402052, 6728114.695594047196209 ], [ -330630.576202555792406, 6728154.302349713630974 ], [ -330700.484842773992568, 6728193.013211194425821 ], [ -330807.017595463141333, 6728242.118920781649649 ], [ -330935.368968347785994, 6728288.895072972401977 ], [ -330958.52342243277235, 6728297.318393311463296 ], [ -331058.48832516517723, 6728329.040337509475648 ], [ -331324.43058867030777, 6728416.500349481590092 ], [ -331395.675062777940184, 6728440.516172983683646 ], [ -331456.232865769474301, 6728464.352844002656639 ], [ -331516.901988251775037, 6728492.132511101663113 ], [ -331579.797500550048426, 6728526.005910903215408 ], [ -331658.723019522440154, 6728574.934403968974948 ], [ -331708.594151397817768, 6728609.883507688529789 ], [ -331780.617861941107549, 6728670.641537572257221 ], [ -331813.568431215942837, 6728699.497279956005514 ], [ -331905.629650101938751, 6728780.508979326114058 ], [ -331964.962938694807235, 6728828.363614254631102 ], [ -332008.711498576507438, 6728859.9083964060992 ], [ -332036.986649238038808, 6728877.293925194069743 ], [ -332057.024157580803148, 6728889.123275297693908 ], [ -332084.408752315968741, 6728904.178836658596992 ], [ -332118.695155480294488, 6728921.026759778149426 ], [ -332148.528779012907762, 6728933.752341850660741 ], [ -332162.33239587128628, 6728939.129354340024292 ], [ -332191.720741440658458, 6728948.987219800241292 ], [ -332201.294217648857739, 6728952.034198813140392 ], [ -332220.218531083781272, 6728957.052754967473447 ], [ -332254.393614757282194, 6728965.476766899228096 ], [ -332269.310426523617934, 6728969.06145547144115 ], [ -332314.060861822508741, 6728978.023183812387288 ], [ -332374.618664813984651, 6728982.683286448940635 ], [ -332421.706809419556521, 6728984.117164719849825 ], [ -332479.481625141284894, 6728981.070173696614802 ], [ -332525.345255348074716, 6728976.410071983002126 ], [ -332614.846125945914537, 6728959.203565696254373 ], [ -332722.380754052195698, 6728934.648510351777077 ], [ -332950.585710178420413, 6728881.595505061559379 ], [ -333078.603124590707012, 6728848.975247838534415 ], [ -333122.129045490873978, 6728838.042113956063986 ], [ -333304.025093447009567, 6728791.621266473084688 ], [ -333867.079077879374381, 6728663.113969427533448 ], [ -333967.15530010254588, 6728634.975264457054436 ], [ -333998.32475752470782, 6728624.580098694190383 ], [ -334020.143377720203716, 6728616.694119733758271 ], [ -334037.175259811570868, 6728610.600413952022791 ], [ -334093.502922152925748, 6728588.197123094461858 ], [ -334120.553558415733278, 6728574.934403968974948 ], [ -334153.615447181335185, 6728557.907971911132336 ], [ -334187.456572382478043, 6728535.504826107062399 ], [ -334250.463404171459842, 6728489.264928172342479 ], [ -334300.111897065246012, 6728450.731880586594343 ], [ -334366.346994087274652, 6728397.144364205189049 ], [ -334593.327435814775527, 6728213.085582229308784 ], [ -334777.338554096058942, 6728064.336151386611164 ], [ -334816.856973327638116, 6728033.332094333134592 ], [ -334896.673048226395622, 6727977.596774326637387 ], [ -334998.419062811532058, 6727914.514171645976603 ], [ -335056.416517514793668, 6727881.539369387552142 ], [ -335227.959852827247232, 6727786.737557079643011 ], [ -335336.607675841427408, 6727728.136611002497375 ], [ -336440.229107565945014, 6727131.040320103056729 ], [ -336920.127432375738863, 6726864.762400136329234 ], [ -336996.937881023157388, 6726822.294923608191311 ], [ -337046.809012898476794, 6726788.966173161752522 ], [ -337080.650138099619653, 6726765.851152190938592 ], [ -337122.060988674755208, 6726733.597744261845946 ], [ -337175.828302727895789, 6726682.171741526573896 ], [ -337228.037143909896258, 6726628.23750236351043 ], [ -337270.561189392989036, 6726575.199529317207634 ], [ -337298.613701072928961, 6726535.779638105072081 ], [ -337331.118992384523153, 6726482.742267516441643 ], [ -337374.756232775514945, 6726399.603300980292261 ], [ -337435.87063322099857, 6726268.266965638846159 ], [ -337516.020666592172347, 6726098.590008151717484 ], [ -337611.087511729565449, 6725893.978993910364807 ], [ -337769.049869165231939, 6725565.393783728592098 ], [ -337887.939085332502145, 6725298.271307068876922 ], [ -337909.757705527939834, 6725233.776248139329255 ], [ -337918.2179868282401, 6725204.932789925485849 ], [ -337926.45562914700713, 6725166.594438448548317 ], [ -337933.58007655775873, 6725128.972867202013731 ], [ -337940.593204477685504, 6725078.273596220649779 ], [ -337943.26487225672463, 6725035.277995475567877 ], [ -337943.153552765899803, 6724984.400161281228065 ], [ -337941.595079894876108, 6724947.316869803704321 ], [ -337936.363063827564474, 6724902.172221229411662 ], [ -337926.12167067459086, 6724850.041212321259081 ], [ -337916.770833447924815, 6724811.88367513846606 ], [ -337903.969092006678693, 6724773.368032599799335 ], [ -337887.493807369319256, 6724726.791219939477742 ], [ -337872.46567611215869, 6724693.291907898150384 ], [ -337845.748998321825638, 6724641.520514980889857 ], [ -337818.253084095951635, 6724598.527220924384892 ], [ -337800.108007096569054, 6724570.939976832829416 ], [ -337663.852950365573633, 6724374.786618588492274 ], [ -337618.991195575916208, 6724301.163153334520757 ], [ -337592.942434730299283, 6724250.289906968362629 ], [ -337576.35583060211502, 6724207.477808657102287 ], [ -337555.984363786934409, 6724147.111341273412108 ], [ -337545.742970633902587, 6724103.583276074379683 ], [ -337535.835535953345243, 6724045.008839596994221 ], [ -337529.490324978134595, 6723926.786490033380687 ], [ -337538.173245260026306, 6723798.714215298183262 ], [ -337551.754223136755172, 6723710.408211957663298 ], [ -337559.435268001514487, 6723664.016598033718765 ], [ -337566.225756939908024, 6723619.7746487762779 ], [ -337574.129440786258783, 6723575.532939936965704 ], [ -337587.487779681454413, 6723491.348975758068264 ], [ -337608.304524459759705, 6723374.925778801552951 ], [ -337640.141898826637771, 6723170.024995620362461 ], [ -337647.043707255856134, 6723125.964836525730789 ], [ -337687.230043432209641, 6722917.667393878102303 ], [ -337705.486439922242425, 6722837.072220834903419 ], [ -337747.231248969736043, 6722673.018733367323875 ], [ -337771.721536944271065, 6722592.963264365680516 ], [ -337826.49072641460225, 6722427.840152276679873 ], [ -337860.777129578927997, 6722330.773681783117354 ], [ -337902.633258117188234, 6722225.112234109081328 ], [ -337961.966546709998511, 6722087.217152948491275 ], [ -338004.045314229850192, 6721999.287872493267059 ], [ -338047.793874111608602, 6721907.598880563862622 ], [ -338080.633123895619065, 6721844.384219856001437 ], [ -338127.498629519541282, 6721757.711091871373355 ], [ -338180.3753876464325, 6721667.815557775087655 ], [ -338216.66554164502304, 6721607.646989794448018 ], [ -338269.208341299497988, 6721523.48336978815496 ], [ -338340.118856934772339, 6721419.623080398887396 ], [ -338387.095682049519382, 6721349.965800902806222 ], [ -338425.94618433638243, 6721298.036597203463316 ], [ -338478.377664500032552, 6721229.096614299342036 ], [ -338547.395748791866936, 6721142.609097527340055 ], [ -338643.909747309633531, 6721029.621613774448633 ], [ -338769.47813292441424, 6720894.074514014646411 ], [ -338809.775788591592573, 6720852.891562043689191 ], [ -338948.257235138386022, 6720717.884562658146024 ], [ -339117.017583180975635, 6720566.586274825967848 ], [ -339468.341896124591585, 6720295.688789063133299 ], [ -339623.187307817977853, 6720189.695662484504282 ], [ -339632.760784026235342, 6720183.250179013237357 ], [ -339667.937743116926868, 6720160.153905134648085 ], [ -339788.051473682862706, 6720084.778149210847914 ], [ -339877.329705299111083, 6720031.782786020077765 ], [ -339936.774313382687978, 6719998.481822074390948 ], [ -340015.031915410305373, 6719955.334001429378986 ], [ -340107.872370731900446, 6719906.636320782825351 ], [ -340170.656563539349008, 6719875.305246374569833 ], [ -340245.685900334035978, 6719838.603283942677081 ], [ -340321.939751527446788, 6719802.438585191965103 ], [ -340380.382484193891287, 6719776.2998435087502 ], [ -340458.417447239975445, 6719742.999924253672361 ], [ -340516.192262961645611, 6719719.009744228795171 ], [ -340598.012088694726117, 6719685.889089431613684 ], [ -340666.584895023377612, 6719660.108781090937555 ], [ -340771.002577387436759, 6719622.33361557032913 ], [ -340844.918719274224713, 6719597.090593152679503 ], [ -340902.136937541945372, 6719578.292648558504879 ], [ -340972.602175214095041, 6719556.630309080705047 ], [ -341036.165604457026348, 6719538.011484831571579 ], [ -341082.251873645465821, 6719524.584474528208375 ], [ -341145.481344416039065, 6719506.323776043951511 ], [ -341246.670761547167785, 6719479.648907728493214 ], [ -341339.399897377938032, 6719455.659503461793065 ], [ -341420.77444514783565, 6719435.608712321147323 ], [ -341463.075851649220567, 6719425.046261838637292 ], [ -341506.935731021803804, 6719414.662849294021726 ], [ -341547.12206719815731, 6719405.532618167810142 ], [ -341649.981276691192761, 6719382.259526298381388 ], [ -341712.542830516991671, 6719368.295703102834523 ], [ -341777.2194546678802, 6719355.227018466219306 ], [ -341859.818516836501658, 6719339.473015549592674 ], [ -342201.012756117910612, 6719277.710457136854529 ], [ -342240.308536367898341, 6719272.697864251211286 ], [ -342430.553546133567579, 6719244.591596999205649 ], [ -342540.091925074229948, 6719231.702131082303822 ], [ -342608.553411912056617, 6719223.825245286338031 ], [ -342826.516974885307718, 6719201.089731290005147 ], [ -343010.416773675766308, 6719185.157007335685194 ], [ -343086.225346905994229, 6719180.681528685614467 ], [ -343101.25347816303838, 6719179.607414176687598 ], [ -343250.198956844455097, 6719170.298427693545818 ], [ -343345.154482491081581, 6719165.464919675141573 ], [ -343404.821729556308128, 6719162.600619981065392 ], [ -343527.6071279013413, 6719152.396560511551797 ], [ -343756.813959444698412, 6719121.247405420988798 ], [ -343955.185292038251646, 6719082.221620626747608 ], [ -344042.682411801768467, 6719062.171748863533139 ], [ -344131.070087491651066, 6719040.51078215893358 ], [ -344274.33827214257326, 6719000.05326309800148 ], [ -344407.476383131346665, 6718954.404533788561821 ], [ -344493.748988496139646, 6718923.972189727239311 ], [ -344575.346175247628707, 6718891.391806239262223 ], [ -344717.723803972185124, 6718829.990668550133705 ], [ -344822.809403281018604, 6718777.898521106690168 ], [ -344903.182075633783825, 6718735.473203899338841 ], [ -345039.325812873954419, 6718657.604525862261653 ], [ -345174.245035715401173, 6718570.786302826367319 ], [ -345380.520052155363373, 6718415.410844786092639 ], [ -345509.316703003132716, 6718325.731197987683117 ], [ -345652.696207144879736, 6718225.312645622529089 ], [ -345959.604043261962943, 6718032.533974842168391 ], [ -346126.583279451879207, 6717942.679551749490201 ], [ -346395.976447171589825, 6717824.724752078764141 ], [ -346591.342153513804078, 6717754.91922605689615 ], [ -346871.310672858846374, 6717675.6280337581411 ], [ -347088.383679905789904, 6717634.819323685020208 ], [ -347224.416097655135673, 6717617.099815869703889 ], [ -347278.072092217451427, 6717610.656368038617074 ], [ -347323.045166497933678, 6717606.360738984309137 ], [ -347367.46164332452463, 6717601.349174615927041 ], [ -347546.018106556904968, 6717578.618189231492579 ], [ -347693.516431858006399, 6717567.700179433450103 ], [ -347766.208059345954098, 6717565.015425167046487 ], [ -347838.677047852426767, 6717565.015425167046487 ], [ -348120.537998540967237, 6717570.742902004159987 ], [ -348156.160235594841652, 6717569.668999790214002 ], [ -348167.737462637363933, 6717567.342212148010731 ], [ -348180.873162550968118, 6717563.941523709334433 ], [ -348199.574837004183792, 6717556.603200864046812 ], [ -348230.410335953929462, 6717539.062846221029758 ], [ -348235.08575456723338, 6717532.082511512562633 ], [ -348239.315895217354409, 6717526.534044601023197 ], [ -348242.321521468809806, 6717523.491338544525206 ], [ -348247.998815499304328, 6717515.43712211586535 ], [ -348252.56291462178342, 6717506.845966703258455 ], [ -348255.457221382472198, 6717500.402606091462076 ], [ -348258.017569670686498, 6717492.527394488453865 ], [ -348260.243959486484528, 6717483.399317839182913 ], [ -348260.689237449725624, 6717480.535609625279903 ], [ -348261.245834903675131, 6717476.598012475296855 ], [ -348262.692988283932209, 6717462.816437441855669 ], [ -348263.806183191889431, 6717450.287753102369606 ], [ -348264.474100136663765, 6717435.969280309975147 ], [ -348264.808058609080035, 6717416.639381965622306 ], [ -348264.585419627488591, 6717394.982791086658835 ], [ -348263.36090522876475, 6717368.314836797304451 ], [ -348260.911876431317069, 6717344.868586696684361 ], [ -348258.128889161453117, 6717324.82299127150327 ], [ -348253.008192584966309, 6717294.217757701873779 ], [ -348241.987562996451743, 6717243.209290626458824 ], [ -348224.399083451135084, 6717175.556448129937053 ], [ -348215.716163169243373, 6717143.877929324284196 ], [ -348180.539204078551847, 6717014.65948476549238 ], [ -348167.292184674122836, 6716966.337324363179505 ], [ -348153.822526288160589, 6716917.120603808201849 ], [ -348134.898212853353471, 6716848.396662454120815 ], [ -348112.300356222316623, 6716764.28221086692065 ], [ -348098.830697836296167, 6716713.098097323440015 ], [ -348093.487362278217915, 6716689.116840083152056 ], [ -348089.591180100454949, 6716670.683533627539873 ], [ -348084.025205560785253, 6716638.291125282645226 ], [ -348082.132774217345286, 6716624.868894377723336 ], [ -348078.013953057932667, 6716590.329121864400804 ], [ -348076.121521714492701, 6716567.958881023339927 ], [ -348073.895131898578256, 6716533.419349817559123 ], [ -348073.227214953862131, 6716513.196790713816881 ], [ -348073.338534444628749, 6716488.321322268806398 ], [ -348075.898882732843049, 6716440.53916072845459 ], [ -348078.681870002707001, 6716406.537044177763164 ], [ -348084.470483523909934, 6716356.071006528101861 ], [ -348089.368541118805297, 6716328.511671148240566 ], [ -348090.704375008412171, 6716320.279679961502552 ], [ -348093.264723296568263, 6716305.963193367235363 ], [ -348093.376042787451297, 6716298.089136465452611 ], [ -348092.262847879494075, 6716287.351798410527408 ], [ -348091.706250425544567, 6716280.730446998029947 ], [ -348086.919512321357615, 6716258.540011235512793 ], [ -348085.472358941100538, 6716255.497778788208961 ], [ -348068.663115831324831, 6716239.570815687999129 ], [ -348062.09526587446453, 6716233.307411762885749 ], [ -348056.306652353261597, 6716229.012508997693658 ], [ -348047.512412580603268, 6716222.749113189987838 ], [ -348039.497409243427683, 6716218.096307995729148 ], [ -348028.365460164146498, 6716213.264551565982401 ], [ -348019.45990090072155, 6716210.580243677832186 ], [ -348003.20725524489535, 6716202.706278974190354 ], [ -347987.065929079835769, 6716202.885232632979751 ], [ -347973.707590184640139, 6716204.495815739035606 ], [ -347950.664455590420403, 6716207.180121621116996 ], [ -347906.915895708661992, 6716211.475012876093388 ], [ -347892.444361905567348, 6716212.548736043274403 ], [ -347878.863384028780274, 6716211.832920582033694 ], [ -347866.840879023133311, 6716209.864428391680121 ], [ -347858.269278232066426, 6716207.716982904821634 ], [ -347846.135453735594638, 6716202.527325319126248 ], [ -347838.454408870835323, 6716198.948253047652543 ], [ -347829.660169098176993, 6716193.042787238024175 ], [ -347820.086692889919505, 6716185.168839486315846 ], [ -347812.850925988343079, 6716178.189664886333048 ], [ -347805.281200614466798, 6716168.168296430259943 ], [ -347799.715226074738894, 6716159.936467277817428 ], [ -347795.26244644302642, 6716150.630931297317147 ], [ -347791.143625283672009, 6716139.356930794194341 ], [ -347783.685219400504138, 6716114.124700486660004 ], [ -347781.681468566239346, 6716108.577199339866638 ], [ -347778.341883842484094, 6716101.955993238836527 ], [ -347775.670216063386761, 6716096.40850037895143 ], [ -347772.775909302814398, 6716091.218913703225553 ], [ -347766.319378836778924, 6716081.55555422231555 ], [ -347742.719646788667887, 6716049.702339323237538 ], [ -347736.374435813340824, 6716043.081181073561311 ], [ -347729.472627384238876, 6716038.607428549788892 ], [ -347720.789707102347165, 6716035.028428294695914 ], [ -347712.329425802046899, 6716033.059978829696774 ], [ -347702.421991121431347, 6716032.344179138541222 ], [ -347693.293792876356747, 6716033.954728527925909 ], [ -347685.835386993247084, 6716036.102128206752241 ], [ -347677.597744674538262, 6716039.681128931231797 ], [ -347673.367604024417233, 6716042.723280782811344 ], [ -347671.141214208560996, 6716044.154882045462728 ], [ -347663.014891380618792, 6716052.207643846981227 ], [ -347655.333846515917685, 6716061.692017953842878 ], [ -347647.65280165115837, 6716071.713255422189832 ], [ -347641.530229657539167, 6716081.734505219385028 ], [ -347637.968005952134263, 6716090.503108904697001 ], [ -347633.40390682965517, 6716102.850750504992902 ], [ -347629.507724651892204, 6716112.514135247096419 ], [ -347625.388903492479585, 6716119.851157246157527 ], [ -347621.715360296308063, 6716125.57761803176254 ], [ -347618.48709506331943, 6716129.87246626149863 ], [ -347610.694730707793497, 6716138.999026272445917 ], [ -347605.351395149715245, 6716145.978167295455933 ], [ -347601.455212971952278, 6716152.599409176036716 ], [ -347598.894864683679771, 6716159.578561851754785 ], [ -347583.310135972627904, 6716208.969659368507564 ], [ -347567.391448789217975, 6716253.887185596860945 ], [ -347565.053739482536912, 6716261.045379988849163 ], [ -347564.497142028529197, 6716264.982389585115016 ], [ -347564.274503046937753, 6716267.666715400293469 ], [ -347564.385822537820786, 6716272.856414486654103 ], [ -347564.608461519354023, 6716278.582982830703259 ], [ -347564.719781010178849, 6716289.141353769227862 ], [ -347563.829225083813071, 6716295.225844933651388 ], [ -347561.936793740373105, 6716302.384075650945306 ], [ -347559.487764942925423, 6716309.542312658391893 ], [ -347553.699151421606075, 6716321.890286278910935 ], [ -347558.374570034968201, 6716324.932543522678316 ], [ -347569.617838605074212, 6716333.164539407938719 ], [ -347586.983679168857634, 6716346.765246491879225 ], [ -347620.045567934401333, 6716374.324643629603088 ], [ -347641.752868639130611, 6716388.641250371001661 ], [ -347656.892319386999588, 6716396.336436889134347 ], [ -347675.927952312631533, 6716404.031630678102374 ], [ -347681.605246343067847, 6716406.358086044900119 ], [ -347706.986090243968647, 6716415.842872495763004 ], [ -347750.512011144077405, 6716430.875386849977076 ], [ -347771.328755922499113, 6716442.865626520477235 ], [ -347783.239941437379457, 6716451.455659821629524 ], [ -347791.477583756088279, 6716457.361312972381711 ], [ -347844.576980864454526, 6716515.34431673027575 ], [ -347861.720182446588296, 6716534.135193536989391 ], [ -347886.210470421181526, 6716568.853689476847649 ], [ -347895.004710193839855, 6716581.91790410131216 ], [ -347909.4762439969345, 6716603.39337093103677 ], [ -347918.381803260359447, 6716630.953636313788593 ], [ -347920.051595622266177, 6716638.470088510774076 ], [ -347935.302365860959981, 6716706.834329291246831 ], [ -347939.309867529547773, 6716725.267717554233968 ], [ -347938.864589566364884, 6716733.142187391407788 ], [ -347938.085353130823933, 6716745.848734317347407 ], [ -347924.504375254036859, 6716764.28221086692065 ], [ -347886.989706856722478, 6716789.874388247728348 ], [ -347913.26110668387264, 6716822.267399387434125 ], [ -347934.634448916185647, 6716848.57563029974699 ], [ -347966.137864810705651, 6716899.760595140047371 ], [ -348018.012747520348057, 6716969.916733820922673 ], [ -348092.819445333443582, 6717089.827859631739557 ], [ -348098.830697836296167, 6717096.270895469002426 ], [ -348109.072090989269782, 6717101.81906930077821 ], [ -348119.313484142243396, 6717102.355989548377693 ], [ -348133.117101000621915, 6717101.461122488602996 ], [ -348230.85561391711235, 6717073.541319544427097 ], [ -348290.300222000689246, 6717057.791729333810508 ], [ -348319.131970116170123, 6717049.916945648379624 ], [ -348324.920583637431264, 6717049.380028855986893 ], [ -348360.542820691305678, 6717046.158528845757246 ], [ -348414.75541270757094, 6717043.47394647821784 ], [ -348508.375104464765172, 6717045.979556661099195 ], [ -348609.78716057742713, 6717043.831890741363168 ], [ -348672.237394912401214, 6717019.849659784696996 ], [ -348711.310536180913914, 6717008.574456198140979 ], [ -348752.387428283574991, 6716996.046470520086586 ], [ -348785.894595012359787, 6716989.424543014727533 ], [ -348825.079055771580897, 6716982.802620895206928 ], [ -348882.408593530126382, 6716986.561008465476334 ], [ -348923.485485632845666, 6716970.274674852378666 ], [ -348956.881332870863844, 6716945.576780520379543 ], [ -348990.38849959964864, 6716923.563503039069474 ], [ -349017.216496880806517, 6716917.299573161639273 ], [ -349035.250254389306065, 6716914.972971864975989 ], [ -349051.28026106354082, 6716912.467401980422437 ], [ -349097.366530251980294, 6716905.308635124005377 ], [ -349195.772960113186855, 6716931.080225246027112 ], [ -349278.92861973575782, 6716988.350717440247536 ], [ -349330.135585500684101, 6717005.352972325868905 ], [ -349458.264319403737318, 6717002.131489728577435 ], [ -349467.058559176395647, 6717001.594576086848974 ], [ -349475.741479458287358, 6717001.23663367703557 ], [ -349644.724466482526623, 6716991.035281642340124 ], [ -349750.36666324530961, 6716984.234387383796275 ], [ -349756.043957275745925, 6716983.697474921122193 ], [ -349758.604305564018432, 6716983.33953329641372 ], [ -349764.94951653922908, 6716982.265708525665104 ], [ -349778.975772379140835, 6716979.760117941536009 ], [ -349784.430427428043913, 6716978.328352238982916 ], [ -349797.454807850823272, 6716974.569968467578292 ], [ -349840.86940926022362, 6716960.610272498801351 ], [ -349877.716160712763667, 6716949.693091041408479 ], [ -349915.119509619369637, 6716938.596954388543963 ], [ -349947.958759403321892, 6716929.648468100465834 ], [ -349958.311472047120333, 6716926.963924127630889 ], [ -349970.55661603435874, 6716924.816289589740336 ], [ -349984.805510855920147, 6716923.384533545002341 ], [ -350025.103166523040272, 6716920.69999163877219 ], [ -350041.467131669749506, 6716918.552358752116561 ], [ -350080.540272938087583, 6716907.814202807843685 ], [ -350122.952998930355534, 6716895.286372097209096 ], [ -350138.983005604590289, 6716890.275245209224522 ], [ -350146.664050469349604, 6716886.516902063973248 ], [ -350154.011136861692648, 6716881.147843438200653 ], [ -350162.916696125175804, 6716872.378388626500964 ], [ -350166.590239321347326, 6716868.620053741149604 ], [ -350171.822255388600752, 6716873.094262133352458 ], [ -350178.724063817819115, 6716875.957756796851754 ], [ -350188.074901044426952, 6716878.821252467110753 ], [ -350218.242483049398288, 6716880.610937769524753 ], [ -350240.061103244894184, 6716887.411745511926711 ], [ -350258.540138716576621, 6716896.718123202212155 ], [ -350271.453199648647569, 6716872.91529375128448 ], [ -350326.11106962809572, 6716828.531256183981895 ], [ -350541.291645331541076, 6716654.397831564769149 ], [ -350550.419843576557469, 6716641.870390591211617 ], [ -350579.028952710446902, 6716562.411070801317692 ], [ -350587.711872992280405, 6716548.631042405962944 ], [ -350644.039535333693493, 6716491.900521682575345 ], [ -350671.758088541217148, 6716458.435068550519645 ], [ -350685.005107945646159, 6716444.655216044746339 ], [ -350704.486018834402785, 6716417.811414462514222 ], [ -350723.521651760034729, 6716387.209588564001024 ], [ -350728.642348336579744, 6716378.440665488131344 ], [ -350731.31401611561887, 6716369.671751856803894 ], [ -350732.761169495934155, 6716357.323705805465579 ], [ -350732.872488986700773, 6716345.691505634225905 ], [ -350736.657351673697121, 6716337.996366956271231 ], [ -350743.893118575273547, 6716329.40645329747349 ], [ -350810.239535088010598, 6716271.603728197515011 ], [ -350825.601624817529228, 6716266.235074855387211 ], [ -350866.121919466299005, 6716264.982389585115016 ], [ -350880.927411741751712, 6716255.497778788208961 ], [ -350934.472086813359056, 6716219.706894109025598 ], [ -350953.619039229815826, 6716211.832920582033694 ], [ -351011.83913291466888, 6716196.979763969779015 ], [ -351059.706513955781702, 6716168.884108054451644 ], [ -351094.549514574056957, 6716156.894271655008197 ], [ -351151.433774369419552, 6716147.946644049137831 ], [ -351194.403097815637011, 6716147.946644049137831 ], [ -351223.568804403475951, 6716156.357413720339537 ], [ -351249.283606776734814, 6716151.525693911127746 ], [ -351317.633774123853073, 6716118.0616390760988 ], [ -351339.229755337699316, 6716103.566556390374899 ], [ -351388.432970268302597, 6716080.123946383595467 ], [ -351402.236587126681115, 6716073.860665056854486 ], [ -351437.970143671322148, 6716056.323502951301634 ], [ -351471.811268872523215, 6716040.754829455167055 ], [ -351481.830023043847177, 6716036.102128206752241 ], [ -351488.397873000707477, 6716033.41787869669497 ], [ -351500.865655969479121, 6716028.049382328987122 ], [ -351514.001355883141514, 6716022.144040409475565 ], [ -351519.56733042281121, 6716019.817694767378271 ], [ -351528.472889686236158, 6716015.880803657695651 ], [ -351537.267129458952695, 6716011.943914450705051 ], [ -351541.831228581431787, 6716009.975470561534166 ], [ -351550.959426826506387, 6716005.322786891832948 ], [ -351561.646097942662891, 6715999.775359838269651 ], [ -351566.210197065200191, 6715998.343766373582184 ], [ -351571.108254660037346, 6715997.270071438513696 ], [ -351576.228951236524154, 6715997.627969735302031 ], [ -351582.351523230201565, 6715998.343766373582184 ], [ -351590.255207076552324, 6715999.059563075192273 ], [ -351595.375903652980924, 6715983.312050178647041 ], [ -351603.724865462514572, 6715964.701392364688218 ], [ -351616.860565376118757, 6715942.332869525998831 ], [ -351636.007517792575527, 6715908.332832445390522 ], [ -351642.686687240144238, 6715894.911804237402976 ], [ -351646.36023043631576, 6715885.248677621595562 ], [ -351647.696064325806219, 6715874.332937265746295 ], [ -351648.141342289047316, 6715871.111901924014091 ], [ -351648.475300761405379, 6715863.954050169326365 ], [ -351648.363981270580553, 6715846.059448292478919 ], [ -351653.373358356300741, 6715845.522610844112933 ], [ -351660.94308373023523, 6715843.912098709493876 ], [ -351669.514684521360323, 6715841.406858243048191 ], [ -351677.084409895236604, 6715838.722672885283828 ], [ -351680.201355637458619, 6715837.6489989887923 ], [ -351686.769205594318919, 6715835.322706035338342 ], [ -351697.010598747292534, 6715831.564849587157369 ], [ -351708.921784262172878, 6715826.554377022199333 ], [ -351716.714148617640603, 6715822.617579312063754 ], [ -351728.402695150929503, 6715815.638715316541493 ], [ -351743.542145898798481, 6715806.512517576105893 ], [ -351794.971750645374414, 6715767.681555211544037 ], [ -351878.350049249536823, 6715710.598587134853005 ], [ -351903.619573659612797, 6715693.956919394433498 ], [ -351939.687088676611893, 6715672.662791973911226 ], [ -351977.090437583159655, 6715652.263427993282676 ], [ -352004.586351809033658, 6715639.200704200193286 ], [ -352022.842748299182858, 6715631.685173978097737 ], [ -352041.321783770807087, 6715623.990709741599858 ], [ -352071.823324248252902, 6715612.001675298437476 ], [ -352089.077845321153291, 6715605.917694420553744 ], [ -352132.937724693678319, 6715592.497164431959391 ], [ -352197.948307317041326, 6715574.066339276731014 ], [ -352214.0896334820427, 6715564.403593233786523 ], [ -352229.451723211444914, 6715553.667222185991704 ], [ -352248.487356137193274, 6715539.888900071382523 ], [ -352272.643685639312025, 6715518.416236742399633 ], [ -352314.833772649930324, 6715482.449652458541095 ], [ -352330.86377932416508, 6715471.176576636731625 ], [ -352343.77684025617782, 6715462.587576957419515 ], [ -352355.131428317108657, 6715456.682644931599498 ], [ -352365.929418924031779, 6715452.209214426577091 ], [ -352390.197067916975357, 6715443.441297765821218 ], [ -352399.993183106766082, 6715438.788937653414905 ], [ -352414.464716909918934, 6715428.589542092755437 ], [ -352433.277710854017641, 6715411.053769045509398 ], [ -352443.853062479349319, 6715399.422919989563525 ], [ -352450.198273454559967, 6715392.444418527185917 ], [ -352455.986886975821108, 6715384.392308881506324 ], [ -352461.441542024665978, 6715376.698078212328255 ], [ -352464.558487766887993, 6715371.151079216040671 ], [ -352470.235781797324307, 6715359.162416865117848 ], [ -352475.133839392277878, 6715344.668684448115528 ], [ -352480.365855459531303, 6715328.385633105412126 ], [ -352483.928079164936207, 6715312.818350715562701 ], [ -352485.597871526784729, 6715302.619112865999341 ], [ -352488.158219815057237, 6715275.421207691542804 ], [ -352493.0562774099526, 6715225.856837696395814 ], [ -352497.397737550898455, 6715182.376429283991456 ], [ -352502.963712090568151, 6715126.550072319805622 ], [ -352509.531562047428451, 6715055.694093238562346 ], [ -352513.873022188316099, 6715012.93030305672437 ], [ -352517.546565384487621, 6714987.880488381721079 ], [ -352521.33142807148397, 6714971.59815014526248 ], [ -352529.012472936185077, 6714935.276128266938031 ], [ -352538.029351690434851, 6714907.721599004231393 ], [ -352539.253866089158691, 6714903.606320163235068 ], [ -352541.36893641424831, 6714900.564593661576509 ], [ -352544.485882156470325, 6714898.417493284679949 ], [ -352547.936786371050403, 6714897.522868295200169 ], [ -352551.610329567221925, 6714897.701793286018074 ], [ -352555.06123378186021, 6714899.133193347603083 ], [ -352569.64408707577968, 6714896.986093350686133 ], [ -352585.451454768422991, 6714892.334045291878283 ], [ -352606.045560565136839, 6714885.534902911633253 ], [ -352635.545225625333842, 6714866.568904154002666 ], [ -352661.148708507826086, 6714848.139721242710948 ], [ -352681.186216850590426, 6714832.573356503620744 ], [ -352716.251856450457126, 6714803.766713999211788 ], [ -352738.070476645953022, 6714785.158750629983842 ], [ -352772.35687981027877, 6714755.099822660908103 ], [ -352803.19237876002444, 6714727.009139032103121 ], [ -352835.808989562443458, 6714695.161219974048436 ], [ -352867.869002910912968, 6714664.029104822315276 ], [ -352908.723256032040808, 6714625.740344717167318 ], [ -352944.122854104323778, 6714593.356066587381065 ], [ -353005.905171494581737, 6714537.354828618466854 ], [ -353051.546162719838321, 6714497.635334064252675 ], [ -353082.270342178759165, 6714472.766019388101995 ], [ -353115.332230944361072, 6714447.538950405083597 ], [ -353142.160228225518949, 6714425.71133673004806 ], [ -353158.078915408987086, 6714410.324693378992379 ], [ -353170.658017868641764, 6714397.085046777501702 ], [ -353202.272753253928386, 6714356.650583593174815 ], [ -353213.961299787217285, 6714342.874285776168108 ], [ -353220.41783025325276, 6714336.07560193259269 ], [ -353227.764916645537596, 6714328.919098749756813 ], [ -353239.898741142009385, 6714319.078917141072452 ], [ -353252.143885129306, 6714311.74351676274091 ], [ -353265.279585042910185, 6714305.12377087213099 ], [ -353280.97563324472867, 6714297.788383060134947 ], [ -353293.443416213616729, 6714292.778853715397418 ], [ -353297.450917882204521, 6714291.168648506514728 ], [ -353301.903697513858788, 6714289.379531985148787 ], [ -353329.733570212207269, 6714277.750284160487354 ], [ -353339.084407438873313, 6714273.993146103806794 ], [ -353350.661634481337387, 6714268.804720205254853 ], [ -353365.689765738439746, 6714262.363920240662992 ], [ -353381.163174958666787, 6714255.207481808029115 ], [ -353384.168801210122183, 6714261.648276114836335 ], [ -353386.39519102597842, 6714266.836697454564273 ], [ -353395.300750289461575, 6714287.053681092336774 ], [ -353408.102491730707698, 6714317.289794488810003 ], [ -353409.994923074147664, 6714323.372813107445836 ], [ -353410.328881546563935, 6714329.634748785756528 ], [ -353409.104367147840094, 6714335.717776623554528 ] ] } }
]
}
